<?xml version="1.0" encoding="UTF-8"?>
<kml xmlns="http://www.opengis.net/kml/2.2" xmlns:gx="http://www.google.com/kml/ext/2.2" xmlns:kml="http://www.opengis.net/kml/2.2" xmlns:atom="http://www.w3.org/2005/Atom">
<Document id="document">
	<name>1402_Davanagere_Layer.kmz</name>
	<gx:CascadingStyle kml:id="__managed_style_055C87954F41AFAC2E83_highlight">
		<styleUrl>https://earth.google.com/balloon_components/base/1.1.0.0/card_template.kml#main</styleUrl>
		<Style>
			<IconStyle>
				<scale>1.2</scale>
				<Icon>
					<href>https://earth.google.com/earth/document/icon?color=1976d2&amp;id=2000&amp;scale=4</href>
				</Icon>
				<hotSpot x="64" y="128" xunits="pixels" yunits="insetPixels"/>
			</IconStyle>
			<LabelStyle>
				<color>00000000</color>
				<scale>0</scale>
			</LabelStyle>
			<LineStyle>
				<color>ff6e6e6e</color>
				<width>0.3072</width>
			</LineStyle>
			<PolyStyle>
				<color>fffcf0cf</color>
			</PolyStyle>
			<BalloonStyle>
			</BalloonStyle>
		</Style>
	</gx:CascadingStyle>
	<gx:CascadingStyle kml:id="__managed_style_055C87954F41AFAC2E83_normal">
		<styleUrl>https://earth.google.com/balloon_components/base/1.1.0.0/card_template.kml#main</styleUrl>
		<Style>
			<IconStyle>
				<Icon>
					<href>https://earth.google.com/earth/document/icon?color=1976d2&amp;id=2000&amp;scale=4</href>
				</Icon>
				<hotSpot x="64" y="128" xunits="pixels" yunits="insetPixels"/>
			</IconStyle>
			<LabelStyle>
				<color>00000000</color>
				<scale>0</scale>
			</LabelStyle>
			<LineStyle>
				<color>ff6e6e6e</color>
				<width>0.2048</width>
			</LineStyle>
			<PolyStyle>
				<color>fffcf0cf</color>
			</PolyStyle>
			<BalloonStyle>
			</BalloonStyle>
		</Style>
	</gx:CascadingStyle>
	<StyleMap id="__managed_style_055C87954F41AFAC2E83">
		<Pair>
			<key>normal</key>
			<styleUrl>#__managed_style_055C87954F41AFAC2E83_normal</styleUrl>
		</Pair>
		<Pair>
			<key>highlight</key>
			<styleUrl>#__managed_style_055C87954F41AFAC2E83_highlight</styleUrl>
		</Pair>
	</StyleMap>
	<gx:CascadingStyle kml:id="__managed_style_0DC492396241AFAC2E86_highlight">
		<styleUrl>https://earth.google.com/balloon_components/base/1.1.0.0/card_template.kml#main</styleUrl>
		<Style>
			<IconStyle>
				<scale>1.2</scale>
				<Icon>
					<href>https://earth.google.com/earth/document/icon?color=1976d2&amp;id=2000&amp;scale=4</href>
				</Icon>
				<hotSpot x="64" y="128" xunits="pixels" yunits="insetPixels"/>
			</IconStyle>
			<LabelStyle>
			</LabelStyle>
			<LineStyle>
				<color>ff2dc0fb</color>
				<width>4.8</width>
			</LineStyle>
			<PolyStyle>
				<color>40ffffff</color>
			</PolyStyle>
			<BalloonStyle>
			</BalloonStyle>
		</Style>
	</gx:CascadingStyle>
	<gx:CascadingStyle kml:id="__managed_style_0DC492396241AFAC2E86_normal">
		<styleUrl>https://earth.google.com/balloon_components/base/1.1.0.0/card_template.kml#main</styleUrl>
		<Style>
			<IconStyle>
				<Icon>
					<href>https://earth.google.com/earth/document/icon?color=1976d2&amp;id=2000&amp;scale=4</href>
				</Icon>
				<hotSpot x="64" y="128" xunits="pixels" yunits="insetPixels"/>
			</IconStyle>
			<LabelStyle>
			</LabelStyle>
			<LineStyle>
				<color>ff2dc0fb</color>
				<width>3.2</width>
			</LineStyle>
			<PolyStyle>
				<color>40ffffff</color>
			</PolyStyle>
			<BalloonStyle>
			</BalloonStyle>
		</Style>
	</gx:CascadingStyle>
	<StyleMap id="__managed_style_0DC492396241AFAC2E86">
		<Pair>
			<key>normal</key>
			<styleUrl>#__managed_style_0DC492396241AFAC2E86_normal</styleUrl>
		</Pair>
		<Pair>
			<key>highlight</key>
			<styleUrl>#__managed_style_0DC492396241AFAC2E86_highlight</styleUrl>
		</Pair>
	</StyleMap>
	<Folder id="5E8D5B8154000001">
		<name>1402_Davanagere_Layer</name>
		<open>1</open>
		<description>1402_Davanagere_Layer</description>
		<styleUrl>#__managed_style_0DC492396241AFAC2E86</styleUrl>
		<Placemark id="5E8D5B8154000002">
			<name>1402001</name>
			<description><![CDATA[<html xmlns:fo="http://www.w3.org/1999/XSL/Format" xmlns:msxsl="urn:schemasmicrosoft-com:xslt">
<head>
<META http-equiv="Content-Type" content="text/html">
<meta http-equiv="content-type" content="text/html; charset=UTF-8">
</head>
<body style="margin:0px 0px 0px 0px;overflow:auto;background:#FFFFFF;">
<table style="font-family:Arial,Verdana,Times;font-size:12px;textalign:left;width:100%;border-collapse:collapse;padding:3px 3px 3px 3px">
<tr style="text-align:center;font-weight:bold;background:#9CBCE2">
<td></td>
</tr>
<tr>
<td>
<table style="font-family:Arial,Verdana,Times;font-size:12px;textalign:left;width:100%;border-spacing:0px; padding:3px 3px 3px 3px">
<tr>
<td>FID</td>
<td>1</td>
</tr>
<tr bgcolor="#D4E4F3">
<td>objectid</td>
<td>0</td>
</tr>
<tr>
<td>statename</td>
<td>Karnataka</td>
</tr>
<tr bgcolor="#D4E4F3">
<td>statecode</td>
<td>29</td>
</tr>
<tr>
<td>districtna</td>
<td>Davanagere</td>
</tr>
<tr bgcolor="#D4E4F3">
<td>districtco</td>
<td>567</td>
</tr>
<tr>
<td>ulbname</td>
<td>City Corporation Davanagere</td>
</tr>
<tr bgcolor="#D4E4F3">
<td>ulbcode</td>
<td>803127</td>
</tr>
<tr bgcolor="#D4E4F3">
<td>wardcode</td>
<td>01</td>
</tr>
<tr>
<td>wardname</td>
<td>Gandhi Nagara</td>
</tr>
</table>
</td>
</tr>
</table>
</body>
</html>]]></description>
			<styleUrl>#__managed_style_055C87954F41AFAC2E83</styleUrl>
			<Polygon>
				<outerBoundaryIs>
					<LinearRing>
						<coordinates>
							75.92185518041039,14.49602406774927,0 75.92179889781377,14.49690435399979,0 75.92183850311049,14.49694170979963,0 75.92197403631388,14.49706940690966,0 75.92191898576658,14.4975105623979,0 75.92189153786991,14.49786163125667,0 75.9213780654584,14.49813482842372,0 75.92109561082417,14.49841623795196,0 75.92105533226524,14.49853715198461,0 75.92094850425414,14.49855120137186,0 75.92089849803513,14.49854675690087,0 75.91983025711035,14.49845113998845,0 75.91891342954108,14.49836919733943,0 75.91843174301775,14.49852254837175,0 75.91809162914012,14.49863127853058,0 75.9178971947883,14.49869343676818,0 75.91686744750068,14.49905931327009,0 75.91672053291266,14.49911151217448,0 75.91656551259437,14.49882489456764,0 75.91643427358262,14.49859894140708,0 75.91635290838221,14.49846189143106,0 75.91634136596203,14.49834430557309,0 75.91625844678062,14.49839673455705,0 75.91613696113058,14.4984501727987,0 75.91584797285017,14.49857252885239,0 75.91551982908518,14.49860654776317,0 75.91518933891467,14.49864181211801,0 75.9149356399593,14.49860266563511,0 75.91483013393466,14.49841075941225,0 75.91337525338,14.49832620156347,0 75.91309292776586,14.49821195734676,0 75.91297335926895,14.49816406842405,0 75.91169658455227,14.49807270439155,0 75.91079092494707,14.4980471758026,0 75.91076998678662,14.4980453024093,0 75.90953938845512,14.49797840127267,0 75.90942070514527,14.49794554613126,0 75.90877323475816,14.49793146159574,0 75.90864982291356,14.49792390644332,0 75.90732742267821,14.49784535455453,0 75.90729774579162,14.49784361314696,0 75.90643003456047,14.49780963805607,0 75.90590543279238,14.49780209326362,0 75.90444235480869,14.49777184545215,0 75.90373690656206,14.49774413624455,0 75.9036899253443,14.49774119978732,0 75.90353633139672,14.49690487863991,0 75.90338016014509,14.49592954124243,0 75.90325529243889,14.49540856400779,0 75.90308483887887,14.49454331282891,0 75.90284962487813,14.49344867811659,0 75.90271820392476,14.49252108494113,0 75.9025221404608,14.49139281077246,0 75.9023061898464,14.49028361872104,0 75.90218972318344,14.48978486436142,0 75.90218281135537,14.48959353038664,0 75.9022731946099,14.48917757344062,0 75.90221794192718,14.48841533140313,0 75.90215071710007,14.48772788777877,0 75.90211857869261,14.48736920977005,0 75.90198569072669,14.4871394889639,0 75.90192530513539,14.48662543921832,0 75.90187388457009,14.48605155478672,0 75.90185897236645,14.48576062804753,0 75.90314213521378,14.48569653969358,0 75.90408088334389,14.48560352558089,0 75.90596426763477,14.48555803184433,0 75.90782351068749,14.48554954183606,0 75.90814094354269,14.48556027468488,0 75.90843315908863,14.48554337423431,0 75.90839637914313,14.48528567219475,0 75.90930308143463,14.48525436318997,0 75.90999516721286,14.48519786356645,0 75.91137196008903,14.48508130316408,0 75.91269361789924,14.4849900627761,0 75.91333788877489,14.48494809282145,0 75.91428033717931,14.48487984590065,0 75.91476981184381,14.48480618095061,0 75.91616817778652,14.48456392742361,0 75.91662456844513,14.48450473958113,0 75.91810417941298,14.48431956672292,0 75.91799222963621,14.4839612047255,0 75.91770905826245,14.48315859822478,0 75.91757801987762,14.48263526142576,0 75.91741428261118,14.48221969232016,0 75.91734627344303,14.48180016137411,0 75.91723045208239,14.48139516977013,0 75.91708459807872,14.48085036278375,0 75.91696817354381,14.4802982644459,0 75.91696742193969,14.48011527901718,0 75.91683540029463,14.47935154993467,0 75.91679008585848,14.47911208610276,0 75.91669161095045,14.47859169344231,0 75.91658849530874,14.47799170258888,0 75.91692691859623,14.47790427244596,0 75.91733389164963,14.47777112458192,0 75.91769690220265,14.47769316424035,0 75.91800358775502,14.47764891144919,0 75.91841810090349,14.47755878915902,0 75.91830862142925,14.47720280854913,0 75.91824616613209,14.47693993256366,0 75.91820772932252,14.47654779410597,0 75.9182265621556,14.47635157632358,0 75.91827735677566,14.47616719358941,0 75.91837455894989,14.4759252226607,0 75.91850820969088,14.47559221323061,0 75.91869091834769,14.47524944355758,0 75.91873683279503,14.47507225624125,0 75.91933105899002,14.47510581409217,0 75.91932776427463,14.47549169297131,0 75.92021911959689,14.47554561544696,0 75.92046316843901,14.47556433655174,0 75.92044372592709,14.47614408206151,0 75.92040749420744,14.4770322530523,0 75.92100603381664,14.47706878011639,0 75.92182884166826,14.47716721557802,0 75.92214964820043,14.47720049672348,0 75.92211070714031,14.47780098804387,0 75.92203444168386,14.47865343633435,0 75.9219612954593,14.47951783215765,0 75.9215405690466,14.47944174109093,0 75.9209171156578,14.47931860395953,0 75.92055486791455,14.47928414189443,0 75.92056701838187,14.47937307740798,0 75.92054991111365,14.47951092322201,0 75.92044252121028,14.4795143333061,0 75.92042242686911,14.47974484888959,0 75.92038098799405,14.48022021429973,0 75.92031457599091,14.48123109287005,0 75.92022032336268,14.48293277081562,0 75.92020987014115,14.48356071155852,0 75.92020931564591,14.48417067335141,0 75.91838388773017,14.48428844131177,0 75.91843355336891,14.48442578657561,0 75.91867006607222,14.48447868300874,0 75.9187408180763,14.48452026633581,0 75.91875649354631,14.48460093498248,0 75.91877909557138,14.48487293636686,0 75.91878696906666,14.48529449529302,0 75.91876627587871,14.48548593597179,0 75.91875762446085,14.48562052022295,0 75.91879553110371,14.48588349166979,0 75.91878118503121,14.48612573743599,0 75.91879142545901,14.48637685718626,0 75.91880424194323,14.48650836688407,0 75.91874042638807,14.48666110601937,0 75.91870721116251,14.48679279744401,0 75.91873858805641,14.48696011314387,0 75.918746438997,14.48702255755906,0 75.9187671427633,14.48718724165989,0 75.9188250271591,14.48782986475919,0 75.91878630280111,14.48811406559812,0 75.91876535094347,14.48824271754975,0 75.91864104587971,14.48861097341057,0 75.91851951443495,14.48890745767719,0 75.91842810154705,14.4890662849608,0 75.91830256576594,14.48913554557266,0 75.91823257435961,14.48927933864039,0 75.91820315401199,14.48958742358745,0 75.91823442030282,14.4897278312928,0 75.91831150976306,14.48981723004657,0 75.91842381961678,14.49026230126122,0 75.91851630212147,14.49036359958464,0 75.91898897089558,14.49037969093049,0 75.91918552168737,14.4904148025649,0 75.91927266842157,14.49071047176298,0 75.91940295012112,14.49104783103352,0 75.9194035909396,14.49120330877535,0 75.91933728529781,14.49149658761396,0 75.91946368565436,14.49163662286258,0 75.91955047494423,14.49184558308003,0 75.91961026201517,14.49220414880233,0 75.91954401713575,14.49251237697353,0 75.91948101414684,14.49286245312817,0 75.91952862493379,14.49324498700218,0 75.91945064689048,14.49368482075799,0 75.91937158395029,14.49386154025073,0 75.9189604079333,14.49387510864965,0 75.91866610630238,14.49395100996044,0 75.91850830929799,14.49412220043181,0 75.9185578051699,14.49421768630992,0 75.91956201187119,14.49423289428402,0 75.92050243555661,14.49426030766833,0 75.92050233995366,14.49483199462489,0 75.92067179038078,14.49484329044381,0 75.92069861223212,14.49539334439534,0 75.92122663455501,14.49543433027106,0 75.92120545818396,14.49565686885966,0 75.92125546941789,14.49587673614795,0 75.92125833971238,14.49597718938411,0 75.92185518041039,14.49602406774927,0 
						</coordinates>
					</LinearRing>
				</outerBoundaryIs>
			</Polygon>
		</Placemark>
		<Placemark id="5E8D5B8154000003">
			<name>1402002</name>
			<description><![CDATA[<html xmlns:fo="http://www.w3.org/1999/XSL/Format" xmlns:msxsl="urn:schemasmicrosoft-com:xslt">
<head>
<META http-equiv="Content-Type" content="text/html">
<meta http-equiv="content-type" content="text/html; charset=UTF-8">
</head>
<body style="margin:0px 0px 0px 0px;overflow:auto;background:#FFFFFF;">
<table style="font-family:Arial,Verdana,Times;font-size:12px;textalign:left;width:100%;border-collapse:collapse;padding:3px 3px 3px 3px">
<tr style="text-align:center;font-weight:bold;background:#9CBCE2">
<td></td>
</tr>
<tr>
<td>
<table style="font-family:Arial,Verdana,Times;font-size:12px;textalign:left;width:100%;border-spacing:0px; padding:3px 3px 3px 3px">
<tr>
<td>FID</td>
<td>1</td>
</tr>
<tr bgcolor="#D4E4F3">
<td>objectid</td>
<td>0</td>
</tr>
<tr>
<td>statename</td>
<td>Karnataka</td>
</tr>
<tr bgcolor="#D4E4F3">
<td>statecode</td>
<td>29</td>
</tr>
<tr>
<td>districtna</td>
<td>Davanagere</td>
</tr>
<tr bgcolor="#D4E4F3">
<td>districtco</td>
<td>567</td>
</tr>
<tr>
<td>ulbname</td>
<td>City Corporation Davanagere</td>
</tr>
<tr bgcolor="#D4E4F3">
<td>ulbcode</td>
<td>803127</td>
</tr>
<tr bgcolor="#D4E4F3">
<td>wardcode</td>
<td>02</td>
</tr>
<tr>
<td>wardname</td>
<td>SSM Nagara</td>
</tr>
</table>
</td>
</tr>
</table>
</body>
</html>]]></description>
			<styleUrl>#__managed_style_055C87954F41AFAC2E83</styleUrl>
			<Polygon>
				<outerBoundaryIs>
					<LinearRing>
						<coordinates>
							75.92605248908515,14.49230626767782,0 75.92582896760639,14.49228110256518,0 75.9256697863441,14.49230534642976,0 75.92543888960937,14.49241788185227,0 75.92501054105742,14.49284858957097,0 75.92408051878971,14.49324413957438,0 75.92367956874841,14.49335592544844,0 75.92333694381033,14.49370522004501,0 75.92317710805651,14.4942921566068,0 75.92323331799689,14.49431087034254,0 75.92318874903384,14.49472125590088,0 75.92302890135126,14.49510960412129,0 75.92290089081412,14.49551380823204,0 75.92247032039658,14.49563589286558,0 75.92185518041039,14.49602406774927,0 75.92125833971238,14.49597718938411,0 75.92125546941789,14.49587673614795,0 75.92120545818396,14.49565686885966,0 75.92122663455501,14.49543433027106,0 75.92069861223212,14.49539334439534,0 75.92067179038078,14.49484329044381,0 75.92050233995366,14.49483199462489,0 75.92050243555661,14.49426030766833,0 75.91956201187119,14.49423289428402,0 75.9185578051699,14.49421768630992,0 75.91850830929799,14.49412220043181,0 75.91866610630238,14.49395100996044,0 75.9189604079333,14.49387510864965,0 75.91937158395029,14.49386154025073,0 75.91945064689048,14.49368482075799,0 75.91952862493379,14.49324498700218,0 75.91948101414684,14.49286245312817,0 75.91954401713575,14.49251237697353,0 75.91961026201517,14.49220414880233,0 75.91955047494423,14.49184558308003,0 75.91946368565436,14.49163662286258,0 75.91933728529781,14.49149658761396,0 75.9194035909396,14.49120330877535,0 75.91940295012112,14.49104783103352,0 75.91927266842157,14.49071047176298,0 75.91918552168737,14.4904148025649,0 75.91898897089558,14.49037969093049,0 75.91851630212147,14.49036359958464,0 75.91842381961678,14.49026230126122,0 75.91831150976306,14.48981723004657,0 75.91823442030282,14.4897278312928,0 75.91820315401199,14.48958742358745,0 75.91823257435961,14.48927933864039,0 75.91830256576594,14.48913554557266,0 75.91842810154705,14.4890662849608,0 75.91851951443495,14.48890745767719,0 75.91864104587971,14.48861097341057,0 75.91876535094347,14.48824271754975,0 75.91878630280111,14.48811406559812,0 75.9188250271591,14.48782986475919,0 75.9187671427633,14.48718724165989,0 75.918746438997,14.48702255755906,0 75.9196729727781,14.48724320804621,0 75.92010809075819,14.48738263257087,0 75.9201415545692,14.48775804545028,0 75.92019406606981,14.48798986328671,0 75.9207069270909,14.48793044701628,0 75.92143571913958,14.48784387055285,0 75.92170325538773,14.48782847142523,0 75.92174829525251,14.48803400455921,0 75.92242575986347,14.4880026437665,0 75.92236487109517,14.48752687542776,0 75.92235395387215,14.48726140678991,0 75.92239392861393,14.48683547487072,0 75.92246981880838,14.48618933758195,0 75.92254281846138,14.48543796457898,0 75.92263924929216,14.48471281133189,0 75.92272516564454,14.48411686685518,0 75.9236977182526,14.4842063357662,0 75.92463162711979,14.48429218357636,0 75.92475280969518,14.48438786629715,0 75.92502549453994,14.48443128497549,0 75.92564667556418,14.48449439056519,0 75.92566403479786,14.48510903541208,0 75.9256850345683,14.48662069223424,0 75.9256965954611,14.48822328281658,0 75.9257145202732,14.48899343418324,0 75.925773950744,14.49029922866479,0 75.92582048404002,14.49086355584921,0 75.92594633385704,14.49160936126596,0 75.92605248908515,14.49230626767782,0 
						</coordinates>
					</LinearRing>
				</outerBoundaryIs>
			</Polygon>
		</Placemark>
		<Placemark id="5E8D5B8154000004">
			<name>1402003</name>
			<description><![CDATA[<html xmlns:fo="http://www.w3.org/1999/XSL/Format" xmlns:msxsl="urn:schemasmicrosoft-com:xslt">
<head>
<META http-equiv="Content-Type" content="text/html">
<meta http-equiv="content-type" content="text/html; charset=UTF-8">
</head>
<body style="margin:0px 0px 0px 0px;overflow:auto;background:#FFFFFF;">
<table style="font-family:Arial,Verdana,Times;font-size:12px;textalign:left;width:100%;border-collapse:collapse;padding:3px 3px 3px 3px">
<tr style="text-align:center;font-weight:bold;background:#9CBCE2">
<td></td>
</tr>
<tr>
<td>
<table style="font-family:Arial,Verdana,Times;font-size:12px;textalign:left;width:100%;border-spacing:0px; padding:3px 3px 3px 3px">
<tr>
<td>FID</td>
<td>1</td>
</tr>
<tr bgcolor="#D4E4F3">
<td>objectid</td>
<td>0</td>
</tr>
<tr>
<td>statename</td>
<td>Karnataka</td>
</tr>
<tr bgcolor="#D4E4F3">
<td>statecode</td>
<td>29</td>
</tr>
<tr>
<td>districtna</td>
<td>Davanagere</td>
</tr>
<tr bgcolor="#D4E4F3">
<td>districtco</td>
<td>567</td>
</tr>
<tr>
<td>ulbname</td>
<td>City Corporation Davanagere</td>
</tr>
<tr bgcolor="#D4E4F3">
<td>ulbcode</td>
<td>803127</td>
</tr>
<tr bgcolor="#D4E4F3">
<td>wardcode</td>
<td>03</td>
</tr>
<tr>
<td>wardname</td>
<td>Siddarameshwara Badavane</td>
</tr>
</table>
</td>
</tr>
</table>
</body>
</html>]]></description>
			<styleUrl>#__managed_style_055C87954F41AFAC2E83</styleUrl>
			<Polygon>
				<outerBoundaryIs>
					<LinearRing>
						<coordinates>
							75.93007405409301,14.48165825615892,0 75.92978274872883,14.48235322878849,0 75.92947334639736,14.48305845688038,0 75.92925696559527,14.48332478264462,0 75.92877918672718,14.48385519856143,0 75.9281243728102,14.48454136678865,0 75.92786623555102,14.48517303537362,0 75.92787305342306,14.4852763188559,0 75.92787721903123,14.48531211217484,0 75.92787425371891,14.48531907518582,0 75.92765338965792,14.48650581137389,0 75.92798667004746,14.48772789214198,0 75.92807013621925,14.48832859233003,0 75.92822775944285,14.48884748966901,0 75.92833476786018,14.48985788543765,0 75.92834573679826,14.48996163521555,0 75.9282212127931,14.49077422443302,0 75.92810301133997,14.49161169721656,0 75.92706379579349,14.49231151298996,0 75.92668460919452,14.49236848988443,0 75.92617596318944,14.49232016820811,0 75.92605248908515,14.49230626767782,0 75.92594633385704,14.49160936126596,0 75.92582048404002,14.49086355584921,0 75.925773950744,14.49029922866479,0 75.9257145202732,14.48899343418324,0 75.9256965954611,14.48822328281658,0 75.9256850345683,14.48662069223424,0 75.92566403479786,14.48510903541208,0 75.92564667556418,14.48449439056519,0 75.92563525909777,14.48409015833415,0 75.92562962453916,14.48273152683807,0 75.92561374205087,14.48156549204074,0 75.92463389493405,14.48149041107586,0 75.92372777132864,14.48143297744447,0 75.92293208974189,14.4813679285859,0 75.92294229114069,14.48116337389759,0 75.92301570518192,14.48021585502097,0 75.92306085786547,14.47985508438403,0 75.92374249857086,14.47994928320854,0 75.9245898922739,14.48005359300816,0 75.92460708395289,14.4797590704449,0 75.9245358520263,14.47974978284195,0 75.92453737596908,14.47952492904907,0 75.92456781400364,14.47916840189135,0 75.92559979645,14.47921734737645,0 75.92652087873141,14.47933212401175,0 75.92739034861106,14.47943274858951,0 75.92808291844332,14.47949818782789,0 75.92852132801222,14.47954668943546,0 75.92852745792123,14.48013509544528,0 75.92853505143596,14.48107511936198,0 75.92852902514971,14.48151526969608,0 75.92877455753582,14.48152386762464,0 75.92895916145933,14.48152122537843,0 75.92919287128483,14.48152030192488,0 75.92939913308037,14.48153096827668,0 75.92978429823208,14.48158493935415,0 75.92989161855461,14.48159408260197,0 75.92988811528647,14.48163715223876,0 75.93007405409301,14.48165825615892,0 
						</coordinates>
					</LinearRing>
				</outerBoundaryIs>
			</Polygon>
		</Placemark>
		<Placemark id="5E8D5B8154000005">
			<name>1402004</name>
			<description><![CDATA[<html xmlns:fo="http://www.w3.org/1999/XSL/Format" xmlns:msxsl="urn:schemasmicrosoft-com:xslt">
<head>
<META http-equiv="Content-Type" content="text/html">
<meta http-equiv="content-type" content="text/html; charset=UTF-8">
</head>
<body style="margin:0px 0px 0px 0px;overflow:auto;background:#FFFFFF;">
<table style="font-family:Arial,Verdana,Times;font-size:12px;textalign:left;width:100%;border-collapse:collapse;padding:3px 3px 3px 3px">
<tr style="text-align:center;font-weight:bold;background:#9CBCE2">
<td></td>
</tr>
<tr>
<td>
<table style="font-family:Arial,Verdana,Times;font-size:12px;textalign:left;width:100%;border-spacing:0px; padding:3px 3px 3px 3px">
<tr>
<td>FID</td>
<td>1</td>
</tr>
<tr bgcolor="#D4E4F3">
<td>objectid</td>
<td>0</td>
</tr>
<tr>
<td>statename</td>
<td>Karnataka</td>
</tr>
<tr bgcolor="#D4E4F3">
<td>statecode</td>
<td>29</td>
</tr>
<tr>
<td>districtna</td>
<td>Davanagere</td>
</tr>
<tr bgcolor="#D4E4F3">
<td>districtco</td>
<td>567</td>
</tr>
<tr>
<td>ulbname</td>
<td>City Corporation Davanagere</td>
</tr>
<tr bgcolor="#D4E4F3">
<td>ulbcode</td>
<td>803127</td>
</tr>
<tr bgcolor="#D4E4F3">
<td>wardcode</td>
<td>04</td>
</tr>
<tr>
<td>wardname</td>
<td>Basha Nagara</td>
</tr>
</table>
</td>
</tr>
</table>
</body>
</html>]]></description>
			<styleUrl>#__managed_style_055C87954F41AFAC2E83</styleUrl>
			<Polygon>
				<outerBoundaryIs>
					<LinearRing>
						<coordinates>
							75.92564667556418,14.48449439056519,0 75.92502549453994,14.48443128497549,0 75.92475280969518,14.48438786629715,0 75.92463162711979,14.48429218357636,0 75.9236977182526,14.4842063357662,0 75.92272516564454,14.48411686685518,0 75.92263924929216,14.48471281133189,0 75.92254281846138,14.48543796457898,0 75.92246981880838,14.48618933758195,0 75.92239392861393,14.48683547487072,0 75.92235395387215,14.48726140678991,0 75.92236487109517,14.48752687542776,0 75.92242575986347,14.4880026437665,0 75.92174829525251,14.48803400455921,0 75.92170325538773,14.48782847142523,0 75.92143571913958,14.48784387055285,0 75.9207069270909,14.48793044701628,0 75.92019406606981,14.48798986328671,0 75.9201415545692,14.48775804545028,0 75.92010809075819,14.48738263257087,0 75.9196729727781,14.48724320804621,0 75.918746438997,14.48702255755906,0 75.91873858805641,14.48696011314387,0 75.91870721116251,14.48679279744401,0 75.91874042638807,14.48666110601937,0 75.91880424194323,14.48650836688407,0 75.91879142545901,14.48637685718626,0 75.91878118503121,14.48612573743599,0 75.91879553110371,14.48588349166979,0 75.91875762446085,14.48562052022295,0 75.91876627587871,14.48548593597179,0 75.91878696906666,14.48529449529302,0 75.91877909557138,14.48487293636686,0 75.91875649354631,14.48460093498248,0 75.9187408180763,14.48452026633581,0 75.91867006607222,14.48447868300874,0 75.91843355336891,14.48442578657561,0 75.91838388773017,14.48428844131177,0 75.92020931564591,14.48417067335141,0 75.92020987014115,14.48356071155852,0 75.92022032336268,14.48293277081562,0 75.92031457599091,14.48123109287005,0 75.92038098799405,14.48022021429973,0 75.92042242686911,14.47974484888959,0 75.92124676791313,14.4798855202539,0 75.92243717037951,14.48012124878433,0 75.92301570518192,14.48021585502097,0 75.92294229114069,14.48116337389759,0 75.92293208974189,14.4813679285859,0 75.92372777132864,14.48143297744447,0 75.92463389493405,14.48149041107586,0 75.92561374205087,14.48156549204074,0 75.92562962453916,14.48273152683807,0 75.92563525909777,14.48409015833415,0 75.92564667556418,14.48449439056519,0 
						</coordinates>
					</LinearRing>
				</outerBoundaryIs>
			</Polygon>
		</Placemark>
		<Placemark id="5E8D5B8154000006">
			<name>1402005</name>
			<description><![CDATA[<html xmlns:fo="http://www.w3.org/1999/XSL/Format" xmlns:msxsl="urn:schemasmicrosoft-com:xslt">
<head>
<META http-equiv="Content-Type" content="text/html">
<meta http-equiv="content-type" content="text/html; charset=UTF-8">
</head>
<body style="margin:0px 0px 0px 0px;overflow:auto;background:#FFFFFF;">
<table style="font-family:Arial,Verdana,Times;font-size:12px;textalign:left;width:100%;border-collapse:collapse;padding:3px 3px 3px 3px">
<tr style="text-align:center;font-weight:bold;background:#9CBCE2">
<td></td>
</tr>
<tr>
<td>
<table style="font-family:Arial,Verdana,Times;font-size:12px;textalign:left;width:100%;border-spacing:0px; padding:3px 3px 3px 3px">
<tr>
<td>FID</td>
<td>1</td>
</tr>
<tr bgcolor="#D4E4F3">
<td>objectid</td>
<td>0</td>
</tr>
<tr>
<td>statename</td>
<td>Karnataka</td>
</tr>
<tr bgcolor="#D4E4F3">
<td>statecode</td>
<td>29</td>
</tr>
<tr>
<td>districtna</td>
<td>Davanagere</td>
</tr>
<tr bgcolor="#D4E4F3">
<td>districtco</td>
<td>567</td>
</tr>
<tr>
<td>ulbname</td>
<td>City Corporation Davanagere</td>
</tr>
<tr bgcolor="#D4E4F3">
<td>ulbcode</td>
<td>803127</td>
</tr>
<tr bgcolor="#D4E4F3">
<td>wardcode</td>
<td>05</td>
</tr>
<tr>
<td>wardname</td>
<td>Jag Jeevan Ram Nagara</td>
</tr>
</table>
</td>
</tr>
</table>
</body>
</html>]]></description>
			<styleUrl>#__managed_style_055C87954F41AFAC2E83</styleUrl>
			<Polygon>
				<outerBoundaryIs>
					<LinearRing>
						<coordinates>
							75.91679008585848,14.47911208610276,0 75.91683540029463,14.47935154993467,0 75.91696742193969,14.48011527901718,0 75.91696817354381,14.4802982644459,0 75.91708459807872,14.48085036278375,0 75.91723045208239,14.48139516977013,0 75.91734627344303,14.48180016137411,0 75.91741428261118,14.48221969232016,0 75.91757801987762,14.48263526142576,0 75.91770905826245,14.48315859822478,0 75.91799222963621,14.4839612047255,0 75.91810417941298,14.48431956672292,0 75.91662456844513,14.48450473958113,0 75.91616817778652,14.48456392742361,0 75.91476981184381,14.48480618095061,0 75.91428033717931,14.48487984590065,0 75.91333788877489,14.48494809282145,0 75.91269361789924,14.4849900627761,0 75.91137196008903,14.48508130316408,0 75.90999516721286,14.48519786356645,0 75.90930308143463,14.48525436318997,0 75.90839637914313,14.48528567219475,0 75.9083949922933,14.48527595254885,0 75.9082613105533,14.48409840717931,0 75.90790262233125,14.48192306789483,0 75.9078210121549,14.48147488170486,0 75.90769032946339,14.48103286526619,0 75.90718936329768,14.48008995631396,0 75.90687594024726,14.47950068237451,0 75.90759632474973,14.47909085943939,0 75.90871699286386,14.47848255143149,0 75.90965392725087,14.47797062701001,0 75.90969842942013,14.4779468452698,0 75.91002198017587,14.47777393999444,0 75.91025646274933,14.47821405444535,0 75.91039500711102,14.47877683531637,0 75.91061580892186,14.47964427772461,0 75.91081783354191,14.4804220932022,0 75.91093693017491,14.48073020023103,0 75.91172437866534,14.48058362755697,0 75.91262953144087,14.48040430511615,0 75.91361192389628,14.48020314985245,0 75.9141013446332,14.48011872326215,0 75.91543347274997,14.47989467325347,0 75.91512847877875,14.47825614337319,0 75.91561566858626,14.47852693479514,0 75.91607298845038,14.47869737943966,0 75.91634649961713,14.47894388483564,0 75.91657539581205,14.47908651260782,0 75.91679008585848,14.47911208610276,0 
						</coordinates>
					</LinearRing>
				</outerBoundaryIs>
			</Polygon>
		</Placemark>
		<Placemark id="5E8D5B8154000007">
			<name>1402006</name>
			<description><![CDATA[<html xmlns:fo="http://www.w3.org/1999/XSL/Format" xmlns:msxsl="urn:schemasmicrosoft-com:xslt">
<head>
<META http-equiv="Content-Type" content="text/html">
<meta http-equiv="content-type" content="text/html; charset=UTF-8">
</head>
<body style="margin:0px 0px 0px 0px;overflow:auto;background:#FFFFFF;">
<table style="font-family:Arial,Verdana,Times;font-size:12px;textalign:left;width:100%;border-collapse:collapse;padding:3px 3px 3px 3px">
<tr style="text-align:center;font-weight:bold;background:#9CBCE2">
<td></td>
</tr>
<tr>
<td>
<table style="font-family:Arial,Verdana,Times;font-size:12px;textalign:left;width:100%;border-spacing:0px; padding:3px 3px 3px 3px">
<tr>
<td>FID</td>
<td>1</td>
</tr>
<tr bgcolor="#D4E4F3">
<td>objectid</td>
<td>0</td>
</tr>
<tr>
<td>statename</td>
<td>Karnataka</td>
</tr>
<tr bgcolor="#D4E4F3">
<td>statecode</td>
<td>29</td>
</tr>
<tr>
<td>districtna</td>
<td>Davanagere</td>
</tr>
<tr bgcolor="#D4E4F3">
<td>districtco</td>
<td>567</td>
</tr>
<tr>
<td>ulbname</td>
<td>City Corporation Davanagere</td>
</tr>
<tr bgcolor="#D4E4F3">
<td>ulbcode</td>
<td>803127</td>
</tr>
<tr bgcolor="#D4E4F3">
<td>wardcode</td>
<td>06</td>
</tr>
<tr>
<td>wardname</td>
<td>Kurubara Beedi</td>
</tr>
</table>
</td>
</tr>
</table>
</body>
</html>]]></description>
			<styleUrl>#__managed_style_055C87954F41AFAC2E83</styleUrl>
			<Polygon>
				<outerBoundaryIs>
					<LinearRing>
						<coordinates>
							75.91679008585848,14.47911208610276,0 75.91657539581205,14.47908651260782,0 75.91634649961713,14.47894388483564,0 75.91607298845038,14.47869737943966,0 75.91561566858626,14.47852693479514,0 75.91512847877875,14.47825614337319,0 75.91543347274997,14.47989467325347,0 75.9141013446332,14.48011872326215,0 75.91361192389628,14.48020314985245,0 75.91262953144087,14.48040430511615,0 75.91172437866534,14.48058362755697,0 75.91093693017491,14.48073020023103,0 75.91081783354191,14.4804220932022,0 75.91061580892186,14.47964427772461,0 75.91039500711102,14.47877683531637,0 75.91025646274933,14.47821405444535,0 75.91002198017587,14.47777393999444,0 75.91043167731183,14.47755499683594,0 75.91181552284718,14.47677223410274,0 75.91183625456381,14.47734025503725,0 75.91196078343864,14.4777763133677,0 75.91261695621364,14.47764818657614,0 75.91359197156758,14.47744706244597,0 75.91434010385993,14.4772946540429,0 75.91492412824417,14.47713040840736,0 75.91496539215727,14.47711880155658,0 75.91592191796779,14.47689979971912,0 75.91583223236361,14.47658081620023,0 75.9156530091244,14.47597872973424,0 75.91548876527951,14.47543758001177,0 75.91535997267438,14.47504029117953,0 75.9157768687657,14.47493342123138,0 75.91602708935805,14.4748893901076,0 75.91644685204724,14.47488297172303,0 75.91665294376891,14.47485346474845,0 75.91704305057023,14.4747993197228,0 75.91706093306883,14.47496908344092,0 75.91740959327147,14.47498446713124,0 75.91790312077607,14.4750064605891,0 75.91845065503469,14.47502824395134,0 75.91873683279503,14.47507225624125,0 75.91869091834769,14.47524944355758,0 75.91850820969088,14.47559221323061,0 75.91837455894989,14.4759252226607,0 75.91827735677566,14.47616719358941,0 75.9182265621556,14.47635157632358,0 75.91820772932252,14.47654779410597,0 75.91824616613209,14.47693993256366,0 75.91830862142925,14.47720280854913,0 75.91841810090349,14.47755878915902,0 75.91800358775502,14.47764891144919,0 75.91769690220265,14.47769316424035,0 75.91733389164963,14.47777112458192,0 75.91692691859623,14.47790427244596,0 75.91658849530874,14.47799170258888,0 75.91669161095045,14.47859169344231,0 75.91679008585848,14.47911208610276,0 
						</coordinates>
					</LinearRing>
				</outerBoundaryIs>
			</Polygon>
		</Placemark>
		<Placemark id="5E8D5B8154000008">
			<name>1402007</name>
			<description><![CDATA[<html xmlns:fo="http://www.w3.org/1999/XSL/Format" xmlns:msxsl="urn:schemasmicrosoft-com:xslt">
<head>
<META http-equiv="Content-Type" content="text/html">
<meta http-equiv="content-type" content="text/html; charset=UTF-8">
</head>
<body style="margin:0px 0px 0px 0px;overflow:auto;background:#FFFFFF;">
<table style="font-family:Arial,Verdana,Times;font-size:12px;textalign:left;width:100%;border-collapse:collapse;padding:3px 3px 3px 3px">
<tr style="text-align:center;font-weight:bold;background:#9CBCE2">
<td></td>
</tr>
<tr>
<td>
<table style="font-family:Arial,Verdana,Times;font-size:12px;textalign:left;width:100%;border-spacing:0px; padding:3px 3px 3px 3px">
<tr>
<td>FID</td>
<td>1</td>
</tr>
<tr bgcolor="#D4E4F3">
<td>objectid</td>
<td>0</td>
</tr>
<tr>
<td>statename</td>
<td>Karnataka</td>
</tr>
<tr bgcolor="#D4E4F3">
<td>statecode</td>
<td>29</td>
</tr>
<tr>
<td>districtna</td>
<td>Davanagere</td>
</tr>
<tr bgcolor="#D4E4F3">
<td>districtco</td>
<td>567</td>
</tr>
<tr>
<td>ulbname</td>
<td>City Corporation Davanagere</td>
</tr>
<tr bgcolor="#D4E4F3">
<td>ulbcode</td>
<td>803127</td>
</tr>
<tr bgcolor="#D4E4F3">
<td>wardcode</td>
<td>07</td>
</tr>
<tr>
<td>wardname</td>
<td>Jaali Nagara</td>
</tr>
</table>
</td>
</tr>
</table>
</body>
</html>]]></description>
			<styleUrl>#__managed_style_055C87954F41AFAC2E83</styleUrl>
			<Polygon>
				<outerBoundaryIs>
					<LinearRing>
						<coordinates>
							75.90969842942013,14.4779468452698,0 75.90965392725087,14.47797062701001,0 75.90871699286386,14.47848255143149,0 75.90759632474973,14.47909085943939,0 75.90687594024726,14.47950068237451,0 75.90658945237702,14.47896204555034,0 75.90590915554125,14.47768494372602,0 75.90513639804959,14.47630653497724,0 75.90467307813348,14.47556081436955,0 75.90459021796178,14.47480167001382,0 75.90435769386438,14.47424075209131,0 75.9059392601243,14.47345305601355,0 75.90847507756862,14.47222335327648,0 75.91034195631258,14.47130478323653,0 75.91219403058166,14.47037190363228,0 75.91297056216565,14.46999735366112,0 75.91318246293675,14.47048857944288,0 75.91338362934286,14.47090639785053,0 75.91353496513003,14.47114501089602,0 75.91374157226369,14.47139237928898,0 75.91406439391783,14.47171192659404,0 75.91403925412411,14.47171591625137,0 75.91372704977363,14.47176546826532,0 75.91296359294134,14.47191793235788,0 75.91237172891438,14.47200992941669,0 75.91235169017992,14.47236282767124,0 75.91184289626067,14.47250832019791,0 75.91101516645101,14.47270288720551,0 75.91110894207648,14.47312411497654,0 75.91121520143945,14.4735961243713,0 75.91135488508705,14.47398727406413,0 75.91158136796969,14.47459336820877,0 75.91167144358543,14.47485912917386,0 75.91070829589346,14.47495854062343,0 75.90986703918537,14.47484817520887,0 75.90979222404152,14.47531490614042,0 75.90968261995495,14.47628110205093,0 75.90956029022428,14.47713671777794,0 75.90952814324281,14.47753152267311,0 75.90969842942013,14.4779468452698,0 
						</coordinates>
					</LinearRing>
				</outerBoundaryIs>
			</Polygon>
		</Placemark>
		<Placemark id="5E8D5B8154000009">
			<name>1402008</name>
			<description><![CDATA[<html xmlns:fo="http://www.w3.org/1999/XSL/Format" xmlns:msxsl="urn:schemasmicrosoft-com:xslt">
<head>
<META http-equiv="Content-Type" content="text/html">
<meta http-equiv="content-type" content="text/html; charset=UTF-8">
</head>
<body style="margin:0px 0px 0px 0px;overflow:auto;background:#FFFFFF;">
<table style="font-family:Arial,Verdana,Times;font-size:12px;textalign:left;width:100%;border-collapse:collapse;padding:3px 3px 3px 3px">
<tr style="text-align:center;font-weight:bold;background:#9CBCE2">
<td></td>
</tr>
<tr>
<td>
<table style="font-family:Arial,Verdana,Times;font-size:12px;textalign:left;width:100%;border-spacing:0px; padding:3px 3px 3px 3px">
<tr>
<td>FID</td>
<td>1</td>
</tr>
<tr bgcolor="#D4E4F3">
<td>objectid</td>
<td>0</td>
</tr>
<tr>
<td>statename</td>
<td>Karnataka</td>
</tr>
<tr bgcolor="#D4E4F3">
<td>statecode</td>
<td>29</td>
</tr>
<tr>
<td>districtna</td>
<td>Davanagere</td>
</tr>
<tr bgcolor="#D4E4F3">
<td>districtco</td>
<td>567</td>
</tr>
<tr>
<td>ulbname</td>
<td>City Corporation Davanagere</td>
</tr>
<tr bgcolor="#D4E4F3">
<td>ulbcode</td>
<td>803127</td>
</tr>
<tr bgcolor="#D4E4F3">
<td>wardcode</td>
<td>08</td>
</tr>
<tr>
<td>wardname</td>
<td>Suresh Nagara</td>
</tr>
</table>
</td>
</tr>
</table>
</body>
</html>]]></description>
			<styleUrl>#__managed_style_055C87954F41AFAC2E83</styleUrl>
			<Polygon>
				<outerBoundaryIs>
					<LinearRing>
						<coordinates>
							75.91002198017587,14.47777393999444,0 75.90969842942013,14.4779468452698,0 75.90952814324281,14.47753152267311,0 75.90956029022428,14.47713671777794,0 75.90968261995495,14.47628110205093,0 75.90979222404152,14.47531490614042,0 75.90986703918537,14.47484817520887,0 75.91070829589346,14.47495854062343,0 75.91167144358543,14.47485912917386,0 75.91158136796969,14.47459336820877,0 75.91135488508705,14.47398727406413,0 75.91121520143945,14.4735961243713,0 75.91110894207648,14.47312411497654,0 75.91101516645101,14.47270288720551,0 75.91184289626067,14.47250832019791,0 75.91235169017992,14.47236282767124,0 75.91237172891438,14.47200992941669,0 75.91296359294134,14.47191793235788,0 75.91372704977363,14.47176546826532,0 75.91403925412411,14.47171591625137,0 75.91420530431458,14.47260870557469,0 75.91433676667604,14.47323908570404,0 75.91441491258458,14.47358861257075,0 75.9144716409605,14.47395317222186,0 75.91448118957186,14.47403685580513,0 75.91445077310944,14.47410275362602,0 75.91452180258761,14.47421310762335,0 75.91495612054572,14.47386457887991,0 75.9153935167494,14.47351902715471,0 75.91571463836243,14.47325465643622,0 75.91558106789049,14.47360799744594,0 75.91542922018135,14.47399429839677,0 75.9153013933693,14.4742519364016,0 75.91522867881768,14.47447945897669,0 75.9152123578293,14.47454027997792,0 75.91503570094891,14.47456393039436,0 75.9149041984268,14.47458357726581,0 75.91472968685503,14.47465123157875,0 75.91431575908545,14.47476383073844,0 75.91421156336274,14.47479748441187,0 75.91436233937677,14.4751681371413,0 75.91450250012821,14.47582395779172,0 75.91455860156537,14.47609547095326,0 75.91467227718029,14.47651793567796,0 75.91472389498966,14.47665360011941,0 75.91486237236987,14.47689800270721,0 75.91492412824417,14.47713040840736,0 75.91434010385993,14.4772946540429,0 75.91359197156758,14.47744706244597,0 75.91261695621364,14.47764818657614,0 75.91196078343864,14.4777763133677,0 75.91183625456381,14.47734025503725,0 75.91181552284718,14.47677223410274,0 75.91043167731183,14.47755499683594,0 75.91002198017587,14.47777393999444,0 
						</coordinates>
					</LinearRing>
				</outerBoundaryIs>
			</Polygon>
		</Placemark>
		<Placemark id="5E8D5B815400000A">
			<name>1402009</name>
			<description><![CDATA[<html xmlns:fo="http://www.w3.org/1999/XSL/Format" xmlns:msxsl="urn:schemasmicrosoft-com:xslt">
<head>
<META http-equiv="Content-Type" content="text/html">
<meta http-equiv="content-type" content="text/html; charset=UTF-8">
</head>
<body style="margin:0px 0px 0px 0px;overflow:auto;background:#FFFFFF;">
<table style="font-family:Arial,Verdana,Times;font-size:12px;textalign:left;width:100%;border-collapse:collapse;padding:3px 3px 3px 3px">
<tr style="text-align:center;font-weight:bold;background:#9CBCE2">
<td></td>
</tr>
<tr>
<td>
<table style="font-family:Arial,Verdana,Times;font-size:12px;textalign:left;width:100%;border-spacing:0px; padding:3px 3px 3px 3px">
<tr>
<td>FID</td>
<td>1</td>
</tr>
<tr bgcolor="#D4E4F3">
<td>objectid</td>
<td>0</td>
</tr>
<tr>
<td>statename</td>
<td>Karnataka</td>
</tr>
<tr bgcolor="#D4E4F3">
<td>statecode</td>
<td>29</td>
</tr>
<tr>
<td>districtna</td>
<td>Davanagere</td>
</tr>
<tr bgcolor="#D4E4F3">
<td>districtco</td>
<td>567</td>
</tr>
<tr>
<td>ulbname</td>
<td>City Corporation Davanagere</td>
</tr>
<tr bgcolor="#D4E4F3">
<td>ulbcode</td>
<td>803127</td>
</tr>
<tr bgcolor="#D4E4F3">
<td>wardcode</td>
<td>09</td>
</tr>
<tr>
<td>wardname</td>
<td>Azad Nagara</td>
</tr>
</table>
</td>
</tr>
</table>
</body>
</html>]]></description>
			<styleUrl>#__managed_style_055C87954F41AFAC2E83</styleUrl>
			<Polygon>
				<outerBoundaryIs>
					<LinearRing>
						<coordinates>
							75.92559979645,14.47921734737645,0 75.92456781400364,14.47916840189135,0 75.92453737596908,14.47952492904907,0 75.9245358520263,14.47974978284195,0 75.92460708395289,14.4797590704449,0 75.9245898922739,14.48005359300816,0 75.92374249857086,14.47994928320854,0 75.92306085786547,14.47985508438403,0 75.92301570518192,14.48021585502097,0 75.92243717037951,14.48012124878433,0 75.92124676791313,14.4798855202539,0 75.92042242686911,14.47974484888959,0 75.92044252121028,14.4795143333061,0 75.92054991111365,14.47951092322201,0 75.92056701838187,14.47937307740798,0 75.92055486791455,14.47928414189443,0 75.9209171156578,14.47931860395953,0 75.9215405690466,14.47944174109093,0 75.9219612954593,14.47951783215765,0 75.92203444168386,14.47865343633435,0 75.92211070714031,14.47780098804387,0 75.92214964820043,14.47720049672348,0 75.92302306443601,14.47729110286768,0 75.9236063468565,14.47734861302184,0 75.92441996369621,14.47745006691978,0 75.92503093975353,14.47752540390382,0 75.92557810101127,14.47760037204731,0 75.92557747714049,14.47774197194644,0 75.92559979645,14.47921734737645,0 
						</coordinates>
					</LinearRing>
				</outerBoundaryIs>
			</Polygon>
		</Placemark>
		<Placemark id="5E8D5B815400000B">
			<name>1402010</name>
			<description><![CDATA[<html xmlns:fo="http://www.w3.org/1999/XSL/Format" xmlns:msxsl="urn:schemasmicrosoft-com:xslt">
<head>
<META http-equiv="Content-Type" content="text/html">
<meta http-equiv="content-type" content="text/html; charset=UTF-8">
</head>
<body style="margin:0px 0px 0px 0px;overflow:auto;background:#FFFFFF;">
<table style="font-family:Arial,Verdana,Times;font-size:12px;textalign:left;width:100%;border-collapse:collapse;padding:3px 3px 3px 3px">
<tr style="text-align:center;font-weight:bold;background:#9CBCE2">
<td></td>
</tr>
<tr>
<td>
<table style="font-family:Arial,Verdana,Times;font-size:12px;textalign:left;width:100%;border-spacing:0px; padding:3px 3px 3px 3px">
<tr>
<td>FID</td>
<td>1</td>
</tr>
<tr bgcolor="#D4E4F3">
<td>objectid</td>
<td>0</td>
</tr>
<tr>
<td>statename</td>
<td>Karnataka</td>
</tr>
<tr bgcolor="#D4E4F3">
<td>statecode</td>
<td>29</td>
</tr>
<tr>
<td>districtna</td>
<td>Davanagere</td>
</tr>
<tr bgcolor="#D4E4F3">
<td>districtco</td>
<td>567</td>
</tr>
<tr>
<td>ulbname</td>
<td>City Corporation Davanagere</td>
</tr>
<tr bgcolor="#D4E4F3">
<td>ulbcode</td>
<td>803127</td>
</tr>
<tr bgcolor="#D4E4F3">
<td>wardcode</td>
<td>10</td>
</tr>
<tr>
<td>wardname</td>
<td>Ganesh Pete</td>
</tr>
</table>
</td>
</tr>
</table>
</body>
</html>]]></description>
			<styleUrl>#__managed_style_055C87954F41AFAC2E83</styleUrl>
			<Polygon>
				<outerBoundaryIs>
					<LinearRing>
						<coordinates>
							75.91873683279503,14.47507225624125,0 75.91845065503469,14.47502824395134,0 75.91790312077607,14.4750064605891,0 75.91740959327147,14.47498446713124,0 75.91706093306883,14.47496908344092,0 75.91704305057023,14.4747993197228,0 75.91665294376891,14.47485346474845,0 75.91644685204724,14.47488297172303,0 75.91602708935805,14.4748893901076,0 75.9157768687657,14.47493342123138,0 75.91535997267438,14.47504029117953,0 75.91548876527951,14.47543758001177,0 75.9156530091244,14.47597872973424,0 75.91583223236361,14.47658081620023,0 75.91592191796779,14.47689979971912,0 75.91496539215727,14.47711880155658,0 75.91492412824417,14.47713040840736,0 75.91486237236987,14.47689800270721,0 75.91472389498966,14.47665360011941,0 75.91467227718029,14.47651793567796,0 75.91455860156537,14.47609547095326,0 75.91450250012821,14.47582395779172,0 75.91436233937677,14.4751681371413,0 75.91421156336274,14.47479748441187,0 75.91431575908545,14.47476383073844,0 75.91472968685503,14.47465123157875,0 75.9149041984268,14.47458357726581,0 75.91503570094891,14.47456393039436,0 75.9152123578293,14.47454027997792,0 75.91522867881768,14.47447945897669,0 75.9153013933693,14.4742519364016,0 75.91542922018135,14.47399429839677,0 75.91558106789049,14.47360799744594,0 75.91571463836243,14.47325465643622,0 75.9153935167494,14.47351902715471,0 75.91495612054572,14.47386457887991,0 75.91452180258761,14.47421310762335,0 75.91445077310944,14.47410275362602,0 75.91448118957186,14.47403685580513,0 75.9144716409605,14.47395317222186,0 75.91441491258458,14.47358861257075,0 75.91433676667604,14.47323908570404,0 75.91420530431458,14.47260870557469,0 75.91403925412411,14.47171591625137,0 75.91406439391783,14.47171192659404,0 75.91444156855459,14.47165206212989,0 75.91506410273539,14.47155695184593,0 75.91522612314085,14.47140682136599,0 75.91561229292179,14.4712916990435,0 75.91564216510416,14.47184174361431,0 75.91567878691961,14.47254126213796,0 75.91597657169075,14.47257299272714,0 75.91610494867989,14.47244990294523,0 75.91629145567723,14.47228472592112,0 75.916447792111,14.47224524684489,0 75.91703373792427,14.47220708417886,0 75.91741119432781,14.47221159210347,0 75.91792694389441,14.4722663907765,0 75.9183719693536,14.47228558398496,0 75.91913760696002,14.47229234620129,0 75.91913922729948,14.47233662713298,0 75.91919722191916,14.47300735701911,0 75.9192260239808,14.47324327142069,0 75.91930011408462,14.47385013508272,0 75.91934950419206,14.47421950607704,0 75.91935831663407,14.47457109543881,0 75.91933105899002,14.47510581409217,0 75.91873683279503,14.47507225624125,0 
						</coordinates>
					</LinearRing>
				</outerBoundaryIs>
			</Polygon>
		</Placemark>
		<Placemark id="5E8D5B815400000C">
			<name>1402011</name>
			<description><![CDATA[<html xmlns:fo="http://www.w3.org/1999/XSL/Format" xmlns:msxsl="urn:schemasmicrosoft-com:xslt">
<head>
<META http-equiv="Content-Type" content="text/html">
<meta http-equiv="content-type" content="text/html; charset=UTF-8">
</head>
<body style="margin:0px 0px 0px 0px;overflow:auto;background:#FFFFFF;">
<table style="font-family:Arial,Verdana,Times;font-size:12px;textalign:left;width:100%;border-collapse:collapse;padding:3px 3px 3px 3px">
<tr style="text-align:center;font-weight:bold;background:#9CBCE2">
<td></td>
</tr>
<tr>
<td>
<table style="font-family:Arial,Verdana,Times;font-size:12px;textalign:left;width:100%;border-spacing:0px; padding:3px 3px 3px 3px">
<tr>
<td>FID</td>
<td>1</td>
</tr>
<tr bgcolor="#D4E4F3">
<td>objectid</td>
<td>0</td>
</tr>
<tr>
<td>statename</td>
<td>Karnataka</td>
</tr>
<tr bgcolor="#D4E4F3">
<td>statecode</td>
<td>29</td>
</tr>
<tr>
<td>districtna</td>
<td>Davanagere</td>
</tr>
<tr bgcolor="#D4E4F3">
<td>districtco</td>
<td>567</td>
</tr>
<tr>
<td>ulbname</td>
<td>City Corporation Davanagere</td>
</tr>
<tr bgcolor="#D4E4F3">
<td>ulbcode</td>
<td>803127</td>
</tr>
<tr bgcolor="#D4E4F3">
<td>wardcode</td>
<td>11</td>
</tr>
<tr>
<td>wardname</td>
<td>Basavaraja Pete</td>
</tr>
</table>
</td>
</tr>
</table>
</body>
</html>]]></description>
			<styleUrl>#__managed_style_055C87954F41AFAC2E83</styleUrl>
			<Polygon>
				<outerBoundaryIs>
					<LinearRing>
						<coordinates>
							75.92874032710517,14.47643213441179,0 75.92850671299226,14.47738171667461,0 75.92831883207251,14.47824836066181,0 75.92736877135783,14.47755494808674,0 75.92641211284914,14.47685188385486,0 75.92559316899276,14.47637008996239,0 75.92559374062996,14.47633541430819,0 75.92557336767426,14.47615848680399,0 75.92544759471421,14.47602024557603,0 75.92493919727833,14.47596483840537,0 75.9239151278705,14.47587557497059,0 75.92300895300511,14.47580019639303,0 75.92215427106923,14.47571025955503,0 75.92131681334845,14.47562982159149,0 75.92046316843901,14.47556433655174,0 75.92021911959689,14.47554561544696,0 75.91932776427463,14.47549169297131,0 75.91933105899002,14.47510581409217,0 75.91935831663407,14.47457109543881,0 75.91934950419206,14.47421950607704,0 75.91930011408462,14.47385013508272,0 75.9192260239808,14.47324327142069,0 75.91949839415618,14.47320925669383,0 75.91950243761737,14.47299874466141,0 75.9195678217516,14.47278081733702,0 75.91958960956256,14.47270658015487,0 75.91958570877929,14.47228824459999,0 75.92031736756901,14.47228154593254,0 75.92081831312439,14.47231785835162,0 75.92094806409128,14.4723556835809,0 75.92080316621352,14.47291133341625,0 75.92067045546271,14.47347098205957,0 75.92051971267227,14.47412339187047,0 75.92144075359498,14.47423340563552,0 75.92250610369419,14.47436378068026,0 75.92296354416123,14.47441580597867,0 75.92347933654673,14.47447956202752,0 75.92378946037802,14.47452618542373,0 75.92452929743123,14.47459802656653,0 75.92534274056138,14.47466060935511,0 75.92554535359373,14.47468074213984,0 75.9255793232001,14.47547295729625,0 75.92560648735285,14.47610374041377,0 75.92657350423798,14.4761986021019,0 75.92783524301187,14.47632518794084,0 75.92874032710517,14.47643213441179,0 
						</coordinates>
					</LinearRing>
				</outerBoundaryIs>
			</Polygon>
		</Placemark>
		<Placemark id="5E8D5B815400000D">
			<name>1402012</name>
			<description><![CDATA[<html xmlns:fo="http://www.w3.org/1999/XSL/Format" xmlns:msxsl="urn:schemasmicrosoft-com:xslt">
<head>
<META http-equiv="Content-Type" content="text/html">
<meta http-equiv="content-type" content="text/html; charset=UTF-8">
</head>
<body style="margin:0px 0px 0px 0px;overflow:auto;background:#FFFFFF;">
<table style="font-family:Arial,Verdana,Times;font-size:12px;textalign:left;width:100%;border-collapse:collapse;padding:3px 3px 3px 3px">
<tr style="text-align:center;font-weight:bold;background:#9CBCE2">
<td></td>
</tr>
<tr>
<td>
<table style="font-family:Arial,Verdana,Times;font-size:12px;textalign:left;width:100%;border-spacing:0px; padding:3px 3px 3px 3px">
<tr>
<td>FID</td>
<td>1</td>
</tr>
<tr bgcolor="#D4E4F3">
<td>objectid</td>
<td>0</td>
</tr>
<tr>
<td>statename</td>
<td>Karnataka</td>
</tr>
<tr bgcolor="#D4E4F3">
<td>statecode</td>
<td>29</td>
</tr>
<tr>
<td>districtna</td>
<td>Davanagere</td>
</tr>
<tr bgcolor="#D4E4F3">
<td>districtco</td>
<td>567</td>
</tr>
<tr>
<td>ulbname</td>
<td>City Corporation Davanagere</td>
</tr>
<tr bgcolor="#D4E4F3">
<td>ulbcode</td>
<td>803127</td>
</tr>
<tr bgcolor="#D4E4F3">
<td>wardcode</td>
<td>12</td>
</tr>
<tr>
<td>wardname</td>
<td>Ahmed Nagara</td>
</tr>
</table>
</td>
</tr>
</table>
</body>
</html>]]></description>
			<styleUrl>#__managed_style_055C87954F41AFAC2E83</styleUrl>
			<Polygon>
				<outerBoundaryIs>
					<LinearRing>
						<coordinates>
							75.92559316899276,14.47637008996239,0 75.92558000665697,14.47716788317836,0 75.92557810101127,14.47760037204731,0 75.92503093975353,14.47752540390382,0 75.92441996369621,14.47745006691978,0 75.9236063468565,14.47734861302184,0 75.92302306443601,14.47729110286768,0 75.92214964820043,14.47720049672348,0 75.92182884166826,14.47716721557802,0 75.92100603381664,14.47706878011639,0 75.92040749420744,14.4770322530523,0 75.92044372592709,14.47614408206151,0 75.92046316843901,14.47556433655174,0 75.92131681334845,14.47562982159149,0 75.92215427106923,14.47571025955503,0 75.92300895300511,14.47580019639303,0 75.9239151278705,14.47587557497059,0 75.92493919727833,14.47596483840537,0 75.92544759471421,14.47602024557603,0 75.92557336767426,14.47615848680399,0 75.92559374062996,14.47633541430819,0 75.92559316899276,14.47637008996239,0 
						</coordinates>
					</LinearRing>
				</outerBoundaryIs>
			</Polygon>
		</Placemark>
		<Placemark id="5E8D5B815400000E">
			<name>1402013</name>
			<description><![CDATA[<html xmlns:fo="http://www.w3.org/1999/XSL/Format" xmlns:msxsl="urn:schemasmicrosoft-com:xslt">
<head>
<META http-equiv="Content-Type" content="text/html">
<meta http-equiv="content-type" content="text/html; charset=UTF-8">
</head>
<body style="margin:0px 0px 0px 0px;overflow:auto;background:#FFFFFF;">
<table style="font-family:Arial,Verdana,Times;font-size:12px;textalign:left;width:100%;border-collapse:collapse;padding:3px 3px 3px 3px">
<tr style="text-align:center;font-weight:bold;background:#9CBCE2">
<td></td>
</tr>
<tr>
<td>
<table style="font-family:Arial,Verdana,Times;font-size:12px;textalign:left;width:100%;border-spacing:0px; padding:3px 3px 3px 3px">
<tr>
<td>FID</td>
<td>1</td>
</tr>
<tr bgcolor="#D4E4F3">
<td>objectid</td>
<td>0</td>
</tr>
<tr>
<td>statename</td>
<td>Karnataka</td>
</tr>
<tr bgcolor="#D4E4F3">
<td>statecode</td>
<td>29</td>
</tr>
<tr>
<td>districtna</td>
<td>Davanagere</td>
</tr>
<tr bgcolor="#D4E4F3">
<td>districtco</td>
<td>567</td>
</tr>
<tr>
<td>ulbname</td>
<td>City Corporation Davanagere</td>
</tr>
<tr bgcolor="#D4E4F3">
<td>ulbcode</td>
<td>803127</td>
</tr>
<tr bgcolor="#D4E4F3">
<td>wardcode</td>
<td>13</td>
</tr>
<tr>
<td>wardname</td>
<td>Karl Marx Nagara</td>
</tr>
</table>
</td>
</tr>
</table>
</body>
</html>]]></description>
			<styleUrl>#__managed_style_055C87954F41AFAC2E83</styleUrl>
			<Polygon>
				<outerBoundaryIs>
					<LinearRing>
						<coordinates>
							75.9310195613465,14.47978555195322,0 75.93102732002561,14.47984049702058,0 75.9310871799436,14.4800112038766,0 75.93105313113654,14.48007811785746,0 75.93086346207751,14.48028072326624,0 75.93084439523449,14.48030112016553,0 75.93079846439878,14.48035028476156,0 75.93038232178976,14.48079719664564,0 75.9301491771423,14.48145863943733,0 75.93011503291673,14.48154908722327,0 75.93009671829041,14.48159952114573,0 75.93008295842351,14.48163701263177,0 75.93007405409301,14.48165825615892,0 75.92988811528647,14.48163715223876,0 75.92989161855461,14.48159408260197,0 75.92978429823208,14.48158493935415,0 75.92939913308037,14.48153096827668,0 75.92919287128483,14.48152030192488,0 75.92895916145933,14.48152122537843,0 75.92877455753582,14.48152386762464,0 75.92852902514971,14.48151526969608,0 75.92853505143596,14.48107511936198,0 75.92852745792123,14.48013509544528,0 75.92852132801222,14.47954668943546,0 75.92808291844332,14.47949818782789,0 75.92739034861106,14.47943274858951,0 75.92652087873141,14.47933212401175,0 75.92559979645,14.47921734737645,0 75.92557747714049,14.47774197194644,0 75.92557810101127,14.47760037204731,0 75.92558000665697,14.47716788317836,0 75.92559316899276,14.47637008996239,0 75.92641211284914,14.47685188385486,0 75.92736877135783,14.47755494808674,0 75.92831883207251,14.47824836066181,0 75.92911122024667,14.47870449436377,0 75.92987884273839,14.47910809968151,0 75.93050370576816,14.47942136959446,0 75.9310195613465,14.47978555195322,0 
						</coordinates>
					</LinearRing>
				</outerBoundaryIs>
			</Polygon>
		</Placemark>
		<Placemark id="5E8D5B815400000F">
			<name>1402014</name>
			<description><![CDATA[<html xmlns:fo="http://www.w3.org/1999/XSL/Format" xmlns:msxsl="urn:schemasmicrosoft-com:xslt">
<head>
<META http-equiv="Content-Type" content="text/html">
<meta http-equiv="content-type" content="text/html; charset=UTF-8">
</head>
<body style="margin:0px 0px 0px 0px;overflow:auto;background:#FFFFFF;">
<table style="font-family:Arial,Verdana,Times;font-size:12px;textalign:left;width:100%;border-collapse:collapse;padding:3px 3px 3px 3px">
<tr style="text-align:center;font-weight:bold;background:#9CBCE2">
<td></td>
</tr>
<tr>
<td>
<table style="font-family:Arial,Verdana,Times;font-size:12px;textalign:left;width:100%;border-spacing:0px; padding:3px 3px 3px 3px">
<tr>
<td>FID</td>
<td>1</td>
</tr>
<tr bgcolor="#D4E4F3">
<td>objectid</td>
<td>0</td>
</tr>
<tr>
<td>statename</td>
<td>Karnataka</td>
</tr>
<tr bgcolor="#D4E4F3">
<td>statecode</td>
<td>29</td>
</tr>
<tr>
<td>districtna</td>
<td>Davanagere</td>
</tr>
<tr bgcolor="#D4E4F3">
<td>districtco</td>
<td>567</td>
</tr>
<tr>
<td>ulbname</td>
<td>City Corporation Davanagere</td>
</tr>
<tr bgcolor="#D4E4F3">
<td>ulbcode</td>
<td>803127</td>
</tr>
<tr bgcolor="#D4E4F3">
<td>wardcode</td>
<td>14</td>
</tr>
<tr>
<td>wardname</td>
<td>Chamaraja Pete</td>
</tr>
</table>
</td>
</tr>
</table>
</body>
</html>]]></description>
			<styleUrl>#__managed_style_055C87954F41AFAC2E83</styleUrl>
			<Polygon>
				<outerBoundaryIs>
					<LinearRing>
						<coordinates>
							75.92944351760158,14.4734344713995,0 75.92932229110771,14.4739722959434,0 75.92902330243288,14.47527472175433,0 75.92880123539632,14.47618455690407,0 75.92874032710517,14.47643213441179,0 75.92783524301187,14.47632518794084,0 75.92657350423798,14.4761986021019,0 75.92560648735285,14.47610374041377,0 75.9255793232001,14.47547295729625,0 75.92554535359373,14.47468074213984,0 75.92534274056138,14.47466060935511,0 75.92452929743123,14.47459802656653,0 75.92378946037802,14.47452618542373,0 75.92347933654673,14.47447956202752,0 75.92296354416123,14.47441580597867,0 75.92250610369419,14.47436378068026,0 75.92144075359498,14.47423340563552,0 75.92051971267227,14.47412339187047,0 75.92067045546271,14.47347098205957,0 75.92080316621352,14.47291133341625,0 75.92094806409128,14.4723556835809,0 75.92109359040953,14.47239810831384,0 75.92217427233,14.47252782686208,0 75.92350032066381,14.47262787342542,0 75.92485095737271,14.47273738255136,0 75.92547466505339,14.47277798841975,0 75.92548998871371,14.47292144677018,0 75.92664429975082,14.47304607144637,0 75.92812290963637,14.47323160144857,0 75.92944351760158,14.4734344713995,0 
						</coordinates>
					</LinearRing>
				</outerBoundaryIs>
			</Polygon>
		</Placemark>
		<Placemark id="5E8D5B8154000013">
			<name>1402018</name>
			<description><![CDATA[<html xmlns:fo="http://www.w3.org/1999/XSL/Format" xmlns:msxsl="urn:schemasmicrosoft-com:xslt">
<head>
<META http-equiv="Content-Type" content="text/html">
<meta http-equiv="content-type" content="text/html; charset=UTF-8">
</head>
<body style="margin:0px 0px 0px 0px;overflow:auto;background:#FFFFFF;">
<table style="font-family:Arial,Verdana,Times;font-size:12px;textalign:left;width:100%;border-collapse:collapse;padding:3px 3px 3px 3px">
<tr style="text-align:center;font-weight:bold;background:#9CBCE2">
<td></td>
</tr>
<tr>
<td>
<table style="font-family:Arial,Verdana,Times;font-size:12px;textalign:left;width:100%;border-spacing:0px; padding:3px 3px 3px 3px">
<tr>
<td>FID</td>
<td>1</td>
</tr>
<tr bgcolor="#D4E4F3">
<td>objectid</td>
<td>0</td>
</tr>
<tr>
<td>statename</td>
<td>Karnataka</td>
</tr>
<tr bgcolor="#D4E4F3">
<td>statecode</td>
<td>29</td>
</tr>
<tr>
<td>districtna</td>
<td>Davanagere</td>
</tr>
<tr bgcolor="#D4E4F3">
<td>districtco</td>
<td>567</td>
</tr>
<tr>
<td>ulbname</td>
<td>City Corporation Davanagere</td>
</tr>
<tr bgcolor="#D4E4F3">
<td>ulbcode</td>
<td>803127</td>
</tr>
<tr bgcolor="#D4E4F3">
<td>wardcode</td>
<td>18</td>
</tr>
<tr>
<td>wardname</td>
<td>Kayi Pete</td>
</tr>
</table>
</td>
</tr>
</table>
</body>
</html>]]></description>
			<styleUrl>#__managed_style_055C87954F41AFAC2E83</styleUrl>
			<Polygon>
				<outerBoundaryIs>
					<LinearRing>
						<coordinates>
							75.91913760696002,14.47229234620129,0 75.9183719693536,14.47228558398496,0 75.91792694389441,14.4722663907765,0 75.91741119432781,14.47221159210347,0 75.91703373792427,14.47220708417886,0 75.916447792111,14.47224524684489,0 75.91629145567723,14.47228472592112,0 75.91610494867989,14.47244990294523,0 75.91597657169075,14.47257299272714,0 75.91567878691961,14.47254126213796,0 75.91564216510416,14.47184174361431,0 75.91561229292179,14.4712916990435,0 75.91522612314085,14.47140682136599,0 75.91506410273539,14.47155695184593,0 75.91444156855459,14.47165206212989,0 75.91406439391783,14.47171192659404,0 75.91374157226369,14.47139237928898,0 75.91353496513003,14.47114501089602,0 75.91338362934286,14.47090639785053,0 75.91318246293675,14.47048857944288,0 75.91297056216565,14.46999735366112,0 75.91299658811924,14.46998480011549,0 75.91330389434404,14.46983657254866,0 75.91341252902679,14.46979760343862,0 75.9139510259819,14.46960442885961,0 75.91488528160248,14.46934963796457,0 75.91611399332133,14.46906499242239,0 75.91925561572063,14.46832796355888,0 75.92111493275095,14.4678973547369,0 75.92117015538437,14.46834959057095,0 75.92112678271798,14.46854710157307,0 75.92094718255419,14.46874873305658,0 75.92033092435706,14.46932163574766,0 75.91995307430456,14.4696675616003,0 75.9195606428318,14.47004942337763,0 75.91927860327569,14.47041291400554,0 75.91915806408556,14.47065019300727,0 75.91910772294101,14.47094460566916,0 75.91911848321955,14.47176980372277,0 75.91913760696002,14.47229234620129,0 
						</coordinates>
					</LinearRing>
				</outerBoundaryIs>
			</Polygon>
		</Placemark>
		<Placemark id="5E8D5B8154000014">
			<name>1402019</name>
			<description><![CDATA[<html xmlns:fo="http://www.w3.org/1999/XSL/Format" xmlns:msxsl="urn:schemasmicrosoft-com:xslt">
<head>
<META http-equiv="Content-Type" content="text/html">
<meta http-equiv="content-type" content="text/html; charset=UTF-8">
</head>
<body style="margin:0px 0px 0px 0px;overflow:auto;background:#FFFFFF;">
<table style="font-family:Arial,Verdana,Times;font-size:12px;textalign:left;width:100%;border-collapse:collapse;padding:3px 3px 3px 3px">
<tr style="text-align:center;font-weight:bold;background:#9CBCE2">
<td></td>
</tr>
<tr>
<td>
<table style="font-family:Arial,Verdana,Times;font-size:12px;textalign:left;width:100%;border-spacing:0px; padding:3px 3px 3px 3px">
<tr>
<td>FID</td>
<td>1</td>
</tr>
<tr bgcolor="#D4E4F3">
<td>objectid</td>
<td>0</td>
</tr>
<tr>
<td>statename</td>
<td>Karnataka</td>
</tr>
<tr bgcolor="#D4E4F3">
<td>statecode</td>
<td>29</td>
</tr>
<tr>
<td>districtna</td>
<td>Davanagere</td>
</tr>
<tr bgcolor="#D4E4F3">
<td>districtco</td>
<td>567</td>
</tr>
<tr>
<td>ulbname</td>
<td>City Corporation Davanagere</td>
</tr>
<tr bgcolor="#D4E4F3">
<td>ulbcode</td>
<td>803127</td>
</tr>
<tr bgcolor="#D4E4F3">
<td>wardcode</td>
<td>19</td>
</tr>
<tr>
<td>wardname</td>
<td>Mandi Pete</td>
</tr>
</table>
</td>
</tr>
</table>
</body>
</html>]]></description>
			<styleUrl>#__managed_style_055C87954F41AFAC2E83</styleUrl>
			<Polygon>
				<outerBoundaryIs>
					<LinearRing>
						<coordinates>
							75.93117908135893,14.46705069156818,0 75.93113032372614,14.4672005876448,0 75.93069919343367,14.46859921733741,0 75.93037425411478,14.46956208405952,0 75.93018087772703,14.47028523165648,0 75.92992025935503,14.47136744337939,0 75.92968384732775,14.47236823094748,0 75.92944351760158,14.4734344713995,0 75.92812290963637,14.47323160144857,0 75.92664429975082,14.47304607144637,0 75.92548998871371,14.47292144677018,0 75.92547466505339,14.47277798841975,0 75.92485095737271,14.47273738255136,0 75.92350032066381,14.47262787342542,0 75.92217427233,14.47252782686208,0 75.92109359040953,14.47239810831384,0 75.92094806409128,14.4723556835809,0 75.92081831312439,14.47231785835162,0 75.92031736756901,14.47228154593254,0 75.91958570877929,14.47228824459999,0 75.91958960956256,14.47270658015487,0 75.9195678217516,14.47278081733702,0 75.91950243761737,14.47299874466141,0 75.91949839415618,14.47320925669383,0 75.9192260239808,14.47324327142069,0 75.91919722191916,14.47300735701911,0 75.91913922729948,14.47233662713298,0 75.91913760696002,14.47229234620129,0 75.91911848321955,14.47176980372277,0 75.91910772294101,14.47094460566916,0 75.91915806408556,14.47065019300727,0 75.91927860327569,14.47041291400554,0 75.9195606428318,14.47004942337763,0 75.91995307430456,14.4696675616003,0 75.92033092435706,14.46932163574766,0 75.92094718255419,14.46874873305658,0 75.92112678271798,14.46854710157307,0 75.92117015538437,14.46834959057095,0 75.92111493275095,14.4678973547369,0 75.92120847683691,14.46787568979919,0 75.92369951967484,14.46729874941833,0 75.92581106369521,14.46680248394196,0 75.92718682162595,14.46646697217877,0 75.92815747855269,14.46611869942656,0 75.92914969031949,14.46564116838921,0 75.92984735585934,14.46517197359587,0 75.93057402714118,14.46459502307185,0 75.93131464561303,14.46383143913825,0 75.93146917545896,14.46363557980733,0 75.93158027134844,14.46398635729431,0 75.93168373557505,14.46451517689385,0 75.93168218805071,14.46487996189698,0 75.93185436888315,14.46496300070985,0 75.93182576976913,14.46505181118127,0 75.93147934464614,14.46612759261519,0 75.93117908135893,14.46705069156818,0 
						</coordinates>
					</LinearRing>
				</outerBoundaryIs>
			</Polygon>
		</Placemark>
		<Placemark id="5E8D5B8154000015">
			<name>1402020</name>
			<description><![CDATA[<html xmlns:fo="http://www.w3.org/1999/XSL/Format" xmlns:msxsl="urn:schemasmicrosoft-com:xslt">
<head>
<META http-equiv="Content-Type" content="text/html">
<meta http-equiv="content-type" content="text/html; charset=UTF-8">
</head>
<body style="margin:0px 0px 0px 0px;overflow:auto;background:#FFFFFF;">
<table style="font-family:Arial,Verdana,Times;font-size:12px;textalign:left;width:100%;border-collapse:collapse;padding:3px 3px 3px 3px">
<tr style="text-align:center;font-weight:bold;background:#9CBCE2">
<td></td>
</tr>
<tr>
<td>
<table style="font-family:Arial,Verdana,Times;font-size:12px;textalign:left;width:100%;border-spacing:0px; padding:3px 3px 3px 3px">
<tr>
<td>FID</td>
<td>1</td>
</tr>
<tr bgcolor="#D4E4F3">
<td>objectid</td>
<td>0</td>
</tr>
<tr>
<td>statename</td>
<td>Karnataka</td>
</tr>
<tr bgcolor="#D4E4F3">
<td>statecode</td>
<td>29</td>
</tr>
<tr>
<td>districtna</td>
<td>Davanagere</td>
</tr>
<tr bgcolor="#D4E4F3">
<td>districtco</td>
<td>567</td>
</tr>
<tr>
<td>ulbname</td>
<td>City Corporation Davanagere</td>
</tr>
<tr bgcolor="#D4E4F3">
<td>ulbcode</td>
<td>803127</td>
</tr>
<tr bgcolor="#D4E4F3">
<td>wardcode</td>
<td>20</td>
</tr>
<tr>
<td>wardname</td>
<td>Bharath Colony</td>
</tr>
</table>
</td>
</tr>
</table>
</body>
</html>]]></description>
			<styleUrl>#__managed_style_055C87954F41AFAC2E83</styleUrl>
			<Polygon>
				<outerBoundaryIs>
					<LinearRing>
						<coordinates>
							75.93784723955977,14.46525450259202,0 75.93783816913876,14.46572534311674,0 75.93784664715763,14.46599082026015,0 75.93786258029031,14.46627779511246,0 75.93792633632856,14.4665538165699,0 75.9380340372572,14.46677225428148,0 75.93807878023706,14.46690483139002,0 75.93807938272401,14.46704834814144,0 75.93803587475979,14.46720998083038,0 75.93793346739149,14.46737543555862,0 75.93781254254935,14.46751585022197,0 75.93772899854878,14.46778887042709,0 75.93767871264964,14.46809046102034,0 75.93767921046015,14.46820886256441,0 75.93773104640204,14.46827682829124,0 75.93796723214962,14.46840146604911,0 75.93819234174525,14.46851897220779,0 75.93835876286269,14.46869053161091,0 75.93844785927493,14.46886240016434,0 75.93845200793081,14.46897361070882,0 75.93834665612688,14.46931488941142,0 75.93789432724947,14.46923566474077,0 75.93739332384304,14.46918384069936,0 75.93704725855716,14.46919957093392,0 75.93699307937855,14.46945094566385,0 75.93694846091446,14.47022612859829,0 75.93576988389783,14.47016623457058,0 75.9349559515566,14.47013000343965,0 75.93482889054395,14.47056465417196,0 75.93476366220317,14.47081607241757,0 75.93479747702013,14.47097739742975,0 75.93494267575824,14.47135714688898,0 75.93446048441625,14.47140211824352,0 75.93389366101741,14.47146177558251,0 75.93346295980139,14.47149219041368,0 75.93261234957505,14.47149197540791,0 75.93193487925546,14.47150901173388,0 75.9317474143232,14.4715886893747,0 75.93153665938564,14.47138142132099,0 75.931293497559,14.47135009184731,0 75.93073384354301,14.47136307011744,0 75.93082328309066,14.47073481658384,0 75.93097380984651,14.46974393558697,0 75.93108086613681,14.46892545065093,0 75.93120022509386,14.46840830768297,0 75.93128418303013,14.46823216397408,0 75.9317035171524,14.46812645237706,0 75.93170202106371,14.46776765896852,0 75.93176946841443,14.46716460965726,0 75.93117908135893,14.46705069156818,0 75.93147934464614,14.46612759261519,0 75.93182576976913,14.46505181118127,0 75.93281829473723,14.46547541473068,0 75.93349326410116,14.46574542637101,0 75.93372895028192,14.46575166700632,0 75.93511574911118,14.46541965428055,0 75.93548393210149,14.46541101571313,0 75.93603984280145,14.46538727725052,0 75.93784723955977,14.46525450259202,0 
						</coordinates>
					</LinearRing>
				</outerBoundaryIs>
			</Polygon>
		</Placemark>
		<Placemark id="5E8D5B8154000016">
			<name>1402021</name>
			<description><![CDATA[<html xmlns:fo="http://www.w3.org/1999/XSL/Format" xmlns:msxsl="urn:schemasmicrosoft-com:xslt">
<head>
<META http-equiv="Content-Type" content="text/html">
<meta http-equiv="content-type" content="text/html; charset=UTF-8">
</head>
<body style="margin:0px 0px 0px 0px;overflow:auto;background:#FFFFFF;">
<table style="font-family:Arial,Verdana,Times;font-size:12px;textalign:left;width:100%;border-collapse:collapse;padding:3px 3px 3px 3px">
<tr style="text-align:center;font-weight:bold;background:#9CBCE2">
<td></td>
</tr>
<tr>
<td>
<table style="font-family:Arial,Verdana,Times;font-size:12px;textalign:left;width:100%;border-spacing:0px; padding:3px 3px 3px 3px">
<tr>
<td>FID</td>
<td>1</td>
</tr>
<tr bgcolor="#D4E4F3">
<td>objectid</td>
<td>0</td>
</tr>
<tr>
<td>statename</td>
<td>Karnataka</td>
</tr>
<tr bgcolor="#D4E4F3">
<td>statecode</td>
<td>29</td>
</tr>
<tr>
<td>districtna</td>
<td>Davanagere</td>
</tr>
<tr bgcolor="#D4E4F3">
<td>districtco</td>
<td>567</td>
</tr>
<tr>
<td>ulbname</td>
<td>City Corporation Davanagere</td>
</tr>
<tr bgcolor="#D4E4F3">
<td>ulbcode</td>
<td>803127</td>
</tr>
<tr bgcolor="#D4E4F3">
<td>wardcode</td>
<td>21</td>
</tr>
<tr>
<td>wardname</td>
<td>Basavapura</td>
</tr>
</table>
</td>
</tr>
</table>
</body>
</html>]]></description>
			<styleUrl>#__managed_style_055C87954F41AFAC2E83</styleUrl>
			<Polygon>
				<outerBoundaryIs>
					<LinearRing>
						<coordinates>
							75.95923795243083,14.45894671939867,0 75.95923635664579,14.45903061572489,0 75.95917671861582,14.46216832222098,0 75.95918009045928,14.46521087459188,0 75.95917934265388,14.46536910859837,0 75.95917733323884,14.46570788168409,0 75.95917631982945,14.46585373033818,0 75.95927433658008,14.46705399075863,0 75.95929601874087,14.46732533608422,0 75.95935229301357,14.4689018577295,0 75.95905590887686,14.46945402085556,0 75.9590296635723,14.46950297288273,0 75.9590305752635,14.46952407518007,0 75.95904563878959,14.46986203544762,0 75.95905442266161,14.47005079204806,0 75.95911871430754,14.4713189256493,0 75.95914756095885,14.47189609165857,0 75.95925286431653,14.47348489326641,0 75.95928985423383,14.47407883676441,0 75.95823244069589,14.47415368057938,0 75.95821625162242,14.47415402316367,0 75.95697751186464,14.47417986164254,0 75.95543251919781,14.474486743009,0 75.9553621966202,14.47450067259005,0 75.95451278458989,14.47467514777061,0 75.95416143988992,14.47472565694141,0 75.95380336526402,14.47474157758113,0 75.95358702272848,14.47475051704203,0 75.95327107865394,14.4747655319908,0 75.9528628121801,14.47479193369185,0 75.95252269167041,14.47486093802511,0 75.95161964637728,14.47490181923906,0 75.95123020817404,14.47491961040192,0 75.95075255436106,14.47509186888974,0 75.95075024760132,14.47509269999854,0 75.95073744592884,14.47509217133773,0 75.95006490835632,14.4750645738802,0 75.94990276390631,14.47507798311132,0 75.94816337839893,14.47522384997187,0 75.94815513808516,14.47522423034441,0 75.94700424929677,14.47527921520784,0 75.94680459863329,14.47539089041028,0 75.94653233567595,14.47549449876391,0 75.94647549555201,14.47550059660787,0 75.94622840378695,14.47549500558016,0 75.94586608882983,14.47541072128778,0 75.94468707287439,14.47534276242491,0 75.94463090335354,14.47533697241636,0 75.94462138890989,14.47533598994636,0 75.9445584442139,14.47532950840407,0 75.94430590076244,14.47530354445164,0 75.94358691607952,14.47538733366262,0 75.94331250798355,14.47541908357952,0 75.94318521173503,14.475439453436,0 75.94300183299902,14.47546872067371,0 75.94263877228852,14.475474164595,0 75.94255970798437,14.47548211256438,0 75.94160463008524,14.47557701868156,0 75.9409120859864,14.47558387268698,0 75.9406593760075,14.47557082263503,0 75.94064376194245,14.47556190237133,0 75.9404781852559,14.47539536191908,0 75.94041196181126,14.47539046542844,0 75.94019894717438,14.47527175457266,0 75.9400922499009,14.47467770956166,0 75.93991159963657,14.47433915796083,0 75.93975385275388,14.47414643125414,0 75.93956518830875,14.47423539458777,0 75.93950224610711,14.47429205640603,0 75.93862474318057,14.47496045256352,0 75.93829610934834,14.47526099206687,0 75.93804079340431,14.47545513141364,0 75.93779302999438,14.47563876056445,0 75.93655164611928,14.47632931469184,0 75.93569443236971,14.47694468015903,0 75.93563006136125,14.47699092925619,0 75.93546211053972,14.47711555082439,0 75.93520807124825,14.4773045869766,0 75.93510991485972,14.47736090044871,0 75.93509472185669,14.47737230406436,0 75.93506236576522,14.47739659816362,0 75.9348013036832,14.47746302912654,0 75.9346548051585,14.47750042096808,0 75.9345630055724,14.47758630780934,0 75.93448351537714,14.47767434980189,0 75.93446022875965,14.47783142018821,0 75.93424477542594,14.47787174820584,0 75.93413569911377,14.47790509369231,0 75.93255424222853,14.47815624655254,0 75.93131094065606,14.47832695043125,0 75.93127333042077,14.47843864660372,0 75.93115815999043,14.47844770926998,0 75.93112015711097,14.47867018667268,0 75.93097857481237,14.47949530808614,0 75.9310195613465,14.47978555195322,0 75.93050370576816,14.47942136959446,0 75.92987884273839,14.47910809968151,0 75.92911122024667,14.47870449436377,0 75.92831883207251,14.47824836066181,0 75.92850671299226,14.47738171667461,0 75.92874032710517,14.47643213441179,0 75.92880123539632,14.47618455690407,0 75.92902330243288,14.47527472175433,0 75.92932229110771,14.4739722959434,0 75.92944351760158,14.4734344713995,0 75.92968384732775,14.47236823094748,0 75.92992025935503,14.47136744337939,0 75.93018087772703,14.47028523165648,0 75.93037425411478,14.46956208405952,0 75.93069919343367,14.46859921733741,0 75.93113032372614,14.4672005876448,0 75.93117908135893,14.46705069156818,0 75.93176946841443,14.46716460965726,0 75.93170202106371,14.46776765896852,0 75.9317035171524,14.46812645237706,0 75.93128418303013,14.46823216397408,0 75.93120022509386,14.46840830768297,0 75.93108086613681,14.46892545065093,0 75.93097380984651,14.46974393558697,0 75.93082328309066,14.47073481658384,0 75.93073384354301,14.47136307011744,0 75.931293497559,14.47135009184731,0 75.93153665938564,14.47138142132099,0 75.9317474143232,14.4715886893747,0 75.93193487925546,14.47150901173388,0 75.93261234957505,14.47149197540791,0 75.93346295980139,14.47149219041368,0 75.93389366101741,14.47146177558251,0 75.93446048441625,14.47140211824352,0 75.93494267575824,14.47135714688898,0 75.93479747702013,14.47097739742975,0 75.93476366220317,14.47081607241757,0 75.93482889054395,14.47056465417196,0 75.9349559515566,14.47013000343965,0 75.93576988389783,14.47016623457058,0 75.93694846091446,14.47022612859829,0 75.93699307937855,14.46945094566385,0 75.93704725855716,14.46919957093392,0 75.93739332384304,14.46918384069936,0 75.93789432724947,14.46923566474077,0 75.93834665612688,14.46931488941142,0 75.93845200793081,14.46897361070882,0 75.93844785927493,14.46886240016434,0 75.93835876286269,14.46869053161091,0 75.93819234174525,14.46851897220779,0 75.93796723214962,14.46840146604911,0 75.93773104640204,14.46827682829124,0 75.93767921046015,14.46820886256441,0 75.93767871264964,14.46809046102034,0 75.93772899854878,14.46778887042709,0 75.93781254254935,14.46751585022197,0 75.93793346739149,14.46737543555862,0 75.93803587475979,14.46720998083038,0 75.93807938272401,14.46704834814144,0 75.93807878023706,14.46690483139002,0 75.9380340372572,14.46677225428148,0 75.93792633632856,14.4665538165699,0 75.93786258029031,14.46627779511246,0 75.93784664715763,14.46599082026015,0 75.93783816913876,14.46572534311674,0 75.93784723955977,14.46525450259202,0 75.93789268310955,14.46467665567417,0 75.93801231053995,14.46422768130228,0 75.93824986987737,14.46380335157861,0 75.9385428260299,14.46341826924329,0 75.93870799267363,14.46329203161593,0 75.93933601695261,14.46290561201285,0 75.9398132741664,14.4625676318911,0 75.93949826224259,14.46208451143328,0 75.93980487520236,14.46202946817206,0 75.94058409443615,14.46199047599939,0 75.94108099775563,14.46194663143281,0 75.94175558888894,14.46183629318256,0 75.94246700023373,14.46172580744586,0 75.94286448121049,14.4616811592807,0 75.9432106256946,14.46168694914863,0 75.94372623491562,14.46171358665324,0 75.94388815425626,14.46169140922662,0 75.94435157863383,14.46156755918362,0 75.94489970257018,14.46144695743319,0 75.94509479237772,14.46143182155749,0 75.94526428827511,14.46145984487514,0 75.94570299875315,14.46158725096843,0 75.94584290181155,14.46158310074307,0 75.9460929772697,14.46151033555259,0 75.94655250481738,14.46133626575663,0 75.94705264018926,14.46118714733749,0 75.94772957338832,14.46105166815864,0 75.94827749775146,14.4608844147567,0 75.94898381009195,14.46073087455375,0 75.94959091928932,14.46062796264025,0 75.95011340156229,14.46053974259133,0 75.95048855760709,14.4604413543327,0 75.95115760328042,14.46018390597863,0 75.95175322088753,14.45997698464053,0 75.95235639954515,14.45981667417732,0 75.95269493138231,14.45976507355563,0 75.95333178240041,14.45973020394148,0 75.95412686729742,14.45967316411763,0 75.95458684346295,14.45960671588899,0 75.95573475727217,14.45939754500197,0 75.9568201809832,14.45921373809919,0 75.95738311263601,14.45911457421725,0 75.95825898335933,14.45900696020269,0 75.95923795243083,14.45894671939867,0 
						</coordinates>
					</LinearRing>
				</outerBoundaryIs>
			</Polygon>
		</Placemark>
		<Placemark id="5E8D5B815400001A">
			<name>1402025</name>
			<description><![CDATA[<html xmlns:fo="http://www.w3.org/1999/XSL/Format" xmlns:msxsl="urn:schemasmicrosoft-com:xslt">
<head>
<META http-equiv="Content-Type" content="text/html">
<meta http-equiv="content-type" content="text/html; charset=UTF-8">
</head>
<body style="margin:0px 0px 0px 0px;overflow:auto;background:#FFFFFF;">
<table style="font-family:Arial,Verdana,Times;font-size:12px;textalign:left;width:100%;border-collapse:collapse;padding:3px 3px 3px 3px">
<tr style="text-align:center;font-weight:bold;background:#9CBCE2">
<td></td>
</tr>
<tr>
<td>
<table style="font-family:Arial,Verdana,Times;font-size:12px;textalign:left;width:100%;border-spacing:0px; padding:3px 3px 3px 3px">
<tr>
<td>FID</td>
<td>1</td>
</tr>
<tr bgcolor="#D4E4F3">
<td>objectid</td>
<td>0</td>
</tr>
<tr>
<td>statename</td>
<td>Karnataka</td>
</tr>
<tr bgcolor="#D4E4F3">
<td>statecode</td>
<td>29</td>
</tr>
<tr>
<td>districtna</td>
<td>Davanagere</td>
</tr>
<tr bgcolor="#D4E4F3">
<td>districtco</td>
<td>567</td>
</tr>
<tr>
<td>ulbname</td>
<td>City Corporation Davanagere</td>
</tr>
<tr bgcolor="#D4E4F3">
<td>ulbcode</td>
<td>803127</td>
</tr>
<tr bgcolor="#D4E4F3">
<td>wardcode</td>
<td>25</td>
</tr>
<tr>
<td>wardname</td>
<td>K B Badavane</td>
</tr>
</table>
</td>
</tr>
</table>
</body>
</html>]]></description>
			<styleUrl>#__managed_style_055C87954F41AFAC2E83</styleUrl>
			<Polygon>
				<outerBoundaryIs>
					<LinearRing>
						<coordinates>
							75.93146917545896,14.46363557980733,0 75.93131464561303,14.46383143913825,0 75.93057402714118,14.46459502307185,0 75.92984735585934,14.46517197359587,0 75.92914969031949,14.46564116838921,0 75.92815747855269,14.46611869942656,0 75.92718682162595,14.46646697217877,0 75.92581106369521,14.46680248394196,0 75.92369951967484,14.46729874941833,0 75.92120847683691,14.46787568979919,0 75.9210676047315,14.46708579042878,0 75.9190156831545,14.46716078761584,0 75.91914120612421,14.46664362512466,0 75.91994435878459,14.46368696400579,0 75.91996338523164,14.46361692157942,0 75.92048565067533,14.46168214285161,0 75.92233999640895,14.46157413761878,0 75.923598866605,14.46147232587899,0 75.92469619928859,14.46148595865052,0 75.92583033712539,14.46149585334678,0 75.92649802460889,14.4614944227865,0 75.9265158285795,14.4610518330907,0 75.9265553377471,14.4605158697445,0 75.92645333697504,14.46051627113051,0 75.92646006088617,14.45971304722646,0 75.9265013608946,14.45901681301621,0 75.92728965774805,14.4590962344198,0 75.92749580742985,14.45908465783933,0 75.92764029934047,14.45929936897832,0 75.92828085441101,14.45926814062492,0 75.92830786755877,14.45867960196369,0 75.92843435422853,14.45810502396779,0 75.92938107956677,14.4582089304202,0 75.92991154333518,14.45826783133361,0 75.92967150561316,14.45780353527133,0 75.92933781368593,14.45724871337127,0 75.92922645887118,14.45703387340824,0 75.92924849540105,14.45642980628889,0 75.92922640882593,14.4555448543869,0 75.92920009776198,14.45512037791615,0 75.92912459542576,14.45467217674599,0 75.92908548588407,14.45438893513884,0 75.92996918283221,14.45437259465329,0 75.93071293696647,14.45436965690409,0 75.93160028740388,14.45436614889254,0 75.93220785394242,14.45437450877571,0 75.93220577189909,14.45475843238735,0 75.93266628592851,14.4548211925845,0 75.93307875495927,14.45484108726934,0 75.93316701694681,14.45481562190902,0 75.93335114478073,14.45482206784312,0 75.93406923118448,14.45484433770475,0 75.93407460167138,14.45436711312536,0 75.93404836382169,14.45425598892609,0 75.93404346798876,14.45396538122707,0 75.93406488579311,14.45380383668319,0 75.93404948382634,14.45364243814704,0 75.93398160559848,14.45325879206967,0 75.93410821107646,14.45271650158122,0 75.93411151771768,14.4526267885769,0 75.93383785844256,14.45234083555387,0 75.93351265183207,14.45205508463511,0 75.93343486845077,14.451944164572,0 75.93329122633196,14.45168501266616,0 75.9345437266532,14.45164399786904,0 75.93507399540049,14.45165983382293,0 75.93521839224057,14.45097036639894,0 75.9353809269668,14.45021624268183,0 75.93587332156845,14.44998106702884,0 75.93626286596984,14.44980370780955,0 75.93691802853954,14.44975087201549,0 75.93720513902433,14.44973178995,0 75.93755019205993,14.4496574613611,0 75.93829787830816,14.45001089202552,0 75.93872587869961,14.45022446608305,0 75.93924174456863,14.45046638114467,0 75.93918934897306,14.4505695532621,0 75.93886165641511,14.45121479777806,0 75.93780278330465,14.45333592959287,0 75.93692636503937,14.45506882944755,0 75.93629826530373,14.45631277095191,0 75.93564830764396,14.45761420744195,0 75.93502022527002,14.45886532333125,0 75.93466196728492,14.45948387985043,0 75.93421557844644,14.4601601933537,0 75.93343169519299,14.46113923693819,0 75.9323255788276,14.46255011280907,0 75.93146917545896,14.46363557980733,0 
						</coordinates>
					</LinearRing>
				</outerBoundaryIs>
			</Polygon>
		</Placemark>
		<Placemark id="5E8D5B815400002E">
			<name>1402045</name>
			<description><![CDATA[<html xmlns:fo="http://www.w3.org/1999/XSL/Format" xmlns:msxsl="urn:schemasmicrosoft-com:xslt">
<head>
<META http-equiv="Content-Type" content="text/html">
<meta http-equiv="content-type" content="text/html; charset=UTF-8">
</head>
<body style="margin:0px 0px 0px 0px;overflow:auto;background:#FFFFFF;">
<table style="font-family:Arial,Verdana,Times;font-size:12px;textalign:left;width:100%;border-collapse:collapse;padding:3px 3px 3px 3px">
<tr style="text-align:center;font-weight:bold;background:#9CBCE2">
<td></td>
</tr>
<tr>
<td>
<table style="font-family:Arial,Verdana,Times;font-size:12px;textalign:left;width:100%;border-spacing:0px; padding:3px 3px 3px 3px">
<tr>
<td>FID</td>
<td>1</td>
</tr>
<tr bgcolor="#D4E4F3">
<td>objectid</td>
<td>0</td>
</tr>
<tr>
<td>statename</td>
<td>Karnataka</td>
</tr>
<tr bgcolor="#D4E4F3">
<td>statecode</td>
<td>29</td>
</tr>
<tr>
<td>districtna</td>
<td>Davanagere</td>
</tr>
<tr bgcolor="#D4E4F3">
<td>districtco</td>
<td>567</td>
</tr>
<tr>
<td>ulbname</td>
<td>City Corporation Davanagere</td>
</tr>
<tr bgcolor="#D4E4F3">
<td>ulbcode</td>
<td>803127</td>
</tr>
<tr bgcolor="#D4E4F3">
<td>wardcode</td>
<td>45</td>
</tr>
<tr>
<td>wardname</td>
<td>SJM Nagar</td>
</tr>
</table>
</td>
</tr>
</table>
</body>
</html>]]></description>
			<styleUrl>#__managed_style_055C87954F41AFAC2E83</styleUrl>
			<Polygon>
				<outerBoundaryIs>
					<LinearRing>
						<coordinates>
							75.9036899253443,14.49774119978732,0 75.90387076645426,14.49842294224452,0 75.90279749204443,14.49851842370223,0 75.90274711973937,14.49839992556443,0 75.90267569312167,14.49844085127482,0 75.90257453033324,14.49849888400491,0 75.90236863305191,14.49853793958593,0 75.90206588537445,14.49859525657057,0 75.90099140731522,14.4987734246531,0 75.90108388758169,14.49907759644599,0 75.90056928969993,14.499142753311,0 75.90032785155216,14.49917339730861,0 75.90006704517704,14.49919113744953,0 75.89983525382169,14.49920685043218,0 75.89969510304519,14.49921630320861,0 75.89921027637359,14.49925016735046,0 75.89872035055708,14.49928267673737,0 75.89838713655963,14.49930275605646,0 75.89755174955239,14.49943748677484,0 75.89748155466572,14.49943988318128,0 75.89748794403481,14.49928694714347,0 75.89749361459751,14.49916429457988,0 75.89751065624249,14.49854077225063,0 75.89753691086455,14.4966649209343,0 75.89615171790294,14.49668727538288,0 75.89581906221034,14.49669926368444,0 75.89573419042952,14.49670821210318,0 75.89572788966971,14.49670888163084,0 75.89572285314756,14.49670941796053,0 75.89410980409771,14.49701223838989,0 75.89299171063797,14.49709084996076,0 75.89288975444707,14.49759223894095,0 75.8911929273893,14.4975387387183,0 75.89106247125417,14.49753474674974,0 75.89079020541411,14.49752646662561,0 75.89065081174657,14.49752558485699,0 75.89053360744673,14.497524834955,0 75.88979881527867,14.49751924063331,0 75.88923218866852,14.49751227697538,0 75.88918446305222,14.49751509028199,0 75.88906518042471,14.49755816217971,0 75.88740916057213,14.49821986073671,0 75.8872819891623,14.49830687208103,0 75.88641740992151,14.49893745658049,0 75.88617711681539,14.49886717800348,0 75.886104992607,14.4967492585501,0 75.88617170290587,14.49559020009281,0 75.88616378884524,14.49452332415463,0 75.88608950778905,14.49331756970776,0 75.88608897540799,14.49330011417805,0 75.88606686572122,14.4925811377474,0 75.88603628537459,14.49163930263959,0 75.88602623481852,14.49158712793554,0 75.88578694836585,14.49039659394646,0 75.88563074925825,14.48987127119918,0 75.88538939838074,14.48921672885873,0 75.88518619127892,14.48831098379341,0 75.88509115887398,14.48730384037355,0 75.88505684592798,14.48657412009162,0 75.88503113194987,14.48633239681923,0 75.88498314022068,14.48589177656755,0 75.88497099014999,14.48579437282075,0 75.88492734393481,14.48544896798084,0 75.8849190327537,14.48507384357533,0 75.88491442738008,14.48501152993875,0 75.88491580566013,14.48465639776899,0 75.88490347515443,14.48420805985079,0 75.88490311004634,14.48419343701902,0 75.88490204324921,14.48410527811839,0 75.8849004336584,14.48395885045195,0 75.88489952227283,14.48386659191952,0 75.88490385065042,14.48379844143531,0 75.88733555253746,14.48260884668526,0 75.88931288613612,14.48163978640499,0 75.89106226287082,14.48076486131724,0 75.89287790810933,14.47988967227174,0 75.89558283613621,14.47855181936057,0 75.89706030098114,14.47783576070217,0 75.89900069263525,14.47685958658547,0 75.90117638816422,14.47579638368744,0 75.90355789571416,14.47463908259144,0 75.90435769386438,14.47424075209131,0 75.90459021796178,14.47480167001382,0 75.90467307813348,14.47556081436955,0 75.90513639804959,14.47630653497724,0 75.90590915554125,14.47768494372602,0 75.90658945237702,14.47896204555034,0 75.90687594024726,14.47950068237451,0 75.90718936329768,14.48008995631396,0 75.90769032946339,14.48103286526619,0 75.9078210121549,14.48147488170486,0 75.90790262233125,14.48192306789483,0 75.9082613105533,14.48409840717931,0 75.9083949922933,14.48527595254885,0 75.90839637914313,14.48528567219475,0 75.90843315908863,14.48554337423431,0 75.90814094354269,14.48556027468488,0 75.90782351068749,14.48554954183606,0 75.90596426763477,14.48555803184433,0 75.90408088334389,14.48560352558089,0 75.90314213521378,14.48569653969358,0 75.90185897236645,14.48576062804753,0 75.90187388457009,14.48605155478672,0 75.90192530513539,14.48662543921832,0 75.90198569072669,14.4871394889639,0 75.90211857869261,14.48736920977005,0 75.90215071710007,14.48772788777877,0 75.90221794192718,14.48841533140313,0 75.9022731946099,14.48917757344062,0 75.90218281135537,14.48959353038664,0 75.90218972318344,14.48978486436142,0 75.9023061898464,14.49028361872104,0 75.9025221404608,14.49139281077246,0 75.90271820392476,14.49252108494113,0 75.90284962487813,14.49344867811659,0 75.90308483887887,14.49454331282891,0 75.90325529243889,14.49540856400779,0 75.90338016014509,14.49592954124243,0 75.90353633139672,14.49690487863991,0 75.9036899253443,14.49774119978732,0 
						</coordinates>
					</LinearRing>
				</outerBoundaryIs>
			</Polygon>
		</Placemark>
	</Folder>
</Document>
</kml>
